{"type": "FeatureCollection", "note": "River courses from OpenStreetMap (ODbL), built by scripts/build_rivers.py from data/river_catalog.json.", "features": [{"type": "Feature", "properties": {"id": "periyar", "name": "Periyar", "featured": true, "gauge_town": "Aluva", "gauge_coordinates": [76.3517, 10.1097], "outlet": "kochi", "length_km": 287.3, "source": "OpenStreetMap"}, "geometry": {"type": "MultiLineString", "coordinates": [[[77.2579867, 9.2867093], [77.2594064, 9.2888689], [77.2577356, 9.2915687], [77.2610505, 9.2964604], [77.257231, 9.2994674], [77.2537978, 9.2990015], [77.251946, 9.300433], [77.244056, 9.3028978], [77.2431119, 9.3049306], [77.2479549, 9.3105548], [77.249929, 9.3139428], [77.2499676, 9.3164138], [77.2527669, 9.3191769], [77.2540059, 9.3198187], [77.2553406, 9.3188468], [77.2562919, 9.3215849], [77.2584477, 9.3212713], [77.2602096, 9.3232047], [77.2625747, 9.3233919], [77.2635025, 9.3250183], [77.2623003, 9.3284571], [77.2663547, 9.3329112], [77.2679452, 9.3315921], [77.2704364, 9.3320298], [77.2685943, 9.3298335], [77.2711, 9.3288721], [77.2706617, 9.3272782], [77.2695531, 9.326832], [77.2712432, 9.3245921], [77.2726511, 9.3242956], [77.2733965, 9.3217176], [77.2752195, 9.3235255], [77.2739258, 9.3285283], [77.2748567, 9.3296952], [77.2758615, 9.3366054], [77.2778929, 9.339492], [77.2760858, 9.340335], [77.2756985, 9.3432589], [77.2734716, 9.3430275], [77.2730623, 9.3439421], [77.2713787, 9.3425296], [77.2701556, 9.3436793], [77.2709031, 9.3449741], [77.2719391, 9.3435947], [77.2722593, 9.3444675], [77.2719094, 9.3506001], [77.2730926, 9.3527318], [77.2704655, 9.3564674], [77.2744197, 9.3578957], [77.2741581, 9.3610199], [77.2796887, 9.3708353], [77.2802453, 9.3694007], [77.2821921, 9.3682801], [77.2835598, 9.3698063], [77.2883262, 9.3692528], [77.288922, 9.3677509], [77.2877877, 9.3673059], [77.2890563, 9.3661845], [77.2940705, 9.36824], [77.2961952, 9.3719512], [77.3037347, 9.373909], [77.3057418, 9.3753625], [77.3078973, 9.3739027], [77.3158084, 9.3844453], [77.3160172, 9.3862549], [77.3134384, 9.3887744], [77.3123659, 9.3887281], [77.3085469, 9.384863], [77.3061266, 9.3870769], [77.3042671, 9.386729], [77.3023136, 9.3893301], [77.3026308, 9.3916324], [77.3012309, 9.3933989], [77.3017451, 9.3951336], [77.3023777, 9.3967193], [77.3048759, 9.3978871], [77.2993123, 9.4024288], [77.3022495, 9.4065498], [77.3035659, 9.4118314], [77.3061677, 9.4145628], [77.3069241, 9.4164696], [77.3063225, 9.4191152], [77.304858, 9.4192422], [77.3017359, 9.4132303], [77.2981203, 9.412881], [77.2971117, 9.4140982], [77.2994506, 9.4172788], [77.2998763, 9.4217149], [77.3013437, 9.4235026], [77.2971975, 9.430239], [77.2982007, 9.4325145], [77.302959, 9.4310963], [77.3072505, 9.431128], [77.3118424, 9.4278259], [77.3151674, 9.4301881], [77.3153793, 9.4317928], [77.3123789, 9.4364093], [77.3098141, 9.434825], [77.3089272, 9.4352433], [77.3059952, 9.4416535], [77.2992253, 9.4432622], [77.2998685, 9.4467322], [77.3011243, 9.448157], [77.3002446, 9.4514219], [77.2932976, 9.4518664], [77.2931796, 9.4535597], [77.2974551, 9.4577823], [77.2983724, 9.4608937], [77.2961086, 9.4627034], [77.2927988, 9.4622113], [77.2916293, 9.4632749], [77.2897893, 9.4691959], [77.2920585, 9.4713601], [77.2920531, 9.4726247], [77.2910285, 9.474429], [77.2873861, 9.4758259], [77.2884375, 9.4787889], [77.2878259, 9.4816038], [77.284441, 9.4811594], [77.2803533, 9.4828049], [77.275241, 9.4812546], [77.2609556, 9.4849981], [77.2642225, 9.4903076], [77.2624791, 9.4928103], [77.2622966, 9.5166188], [77.2633266, 9.5198355], [77.2622966, 9.5226289], [77.2587775, 9.52356], [77.2538852, 9.5222903], [77.2486495, 9.5228828], [77.2397446, 9.525655], [77.236719, 9.5285542], [77.2079658, 9.5265015], [77.2009276, 9.5286389], [77.1941256, 9.5294641], [77.1877956, 9.5292314], [77.1818732, 9.5272845], [77.1678828, 9.5270306], [77.151575, 9.5279617], [77.1487266, 9.5308872], [77.1468061, 9.5312469], [77.1430133, 9.5306335], [77.1415543, 9.5292207], [77.1377282, 9.5294316], [77.1322557, 9.5278394], [77.12895, 9.529728], [77.1249601, 9.5297698], [77.1210869, 9.5318423], [77.1143196, 9.5272112], [77.1128358, 9.5277754], [77.1070511, 9.5359425], [77.0955183, 9.5418182], [77.0964176, 9.5503345], [77.0934769, 9.550156], [77.0902717, 9.5520422], [77.0899504, 9.5532843], [77.0907017, 9.5557623], [77.0955212, 9.558282], [77.0938041, 9.5636865], [77.0899218, 9.5619138], [77.0884466, 9.5602475], [77.0818325, 9.5620574], [77.0816694, 9.5635568], [77.0833145, 9.5664375], [77.0909231, 9.5699092], [77.0913411, 9.5720477], [77.0875459, 9.5754658], [77.0868301, 9.5832636], [77.0847593, 9.5860839], [77.0866446, 9.5887438], [77.0887577, 9.5992584], [77.0833558, 9.6085092], [77.0807511, 9.6097979], [77.0727743, 9.6073473], [77.0716131, 9.6107254], [77.0696633, 9.612993], [77.0654225, 9.6142902], [77.0619212, 9.6170706], [77.0565919, 9.6179385], [77.0533894, 9.6212805], [77.0473416, 9.6236384], [77.0474851, 9.6254259], [77.0520129, 9.6316431], [77.0502014, 9.6332418], [77.0507134, 9.6358677], [77.0521897, 9.6370976], [77.0512343, 9.6388537], [77.0499377, 9.6399206], [77.0445232, 9.6403622], [77.0354547, 9.6468067], [77.0290098, 9.6482683], [77.0267507, 9.6511154], [77.0201143, 9.6535228], [77.0136965, 9.6572344], [77.0130839, 9.6595294], [77.0153357, 9.6586927], [77.0180068, 9.6592604], [77.0197372, 9.6608781], [77.0194922, 9.6635234], [77.0233885, 9.6705291], [77.0223593, 9.6739836], [77.028743, 9.6805542], [77.028792, 9.68175], [77.0260964, 9.6835013], [77.026611, 9.6907361], [77.0214068, 9.6978457], [77.0233302, 9.7003651], [77.0290225, 9.6979055], [77.0296203, 9.6983752], [77.0299755, 9.7017998], [77.0281378, 9.7070496], [77.0316773, 9.714517], [77.030822, 9.7157934], [77.0274106, 9.7170743], [77.0261505, 9.7199097], [77.0200794, 9.7249672], [77.0149056, 9.7271633], [77.0140609, 9.7293311], [77.016643, 9.7332494], [77.0145512, 9.7384302], [77.012557, 9.7493924], [77.0140785, 9.753257], [77.014201, 9.7636703], [77.0147395, 9.7663907], [77.0276179, 9.7762202], [77.033409, 9.7853961], [77.0306659, 9.7924184], [76.9907095, 9.8225977], [76.9856643, 9.8305013], [76.9782229, 9.8347402], [76.9746701, 9.8392696], [76.9738372, 9.8418753], [76.9750974, 9.8433333], [76.9781199, 9.8439817], [76.9809657, 9.8488522], [76.9709779, 9.8541078], [76.9706845, 9.8551306], [76.9716888, 9.8556087], [76.9704164, 9.861635], [76.9696038, 9.8635614], [76.9656604, 9.8667272], [76.9678867, 9.8780635], [76.969011, 9.8779988], [76.9724046, 9.8806509], [76.9694694, 9.8844731], [76.9696078, 9.8865882], [76.9742247, 9.8878738], [76.9736995, 9.8918405], [76.9773624, 9.8921697], [76.9763388, 9.8963216], [76.9735354, 9.9008864], [76.976235, 9.9013231], [76.9776917, 9.9067321], [76.9754371, 9.908032], [76.9721122, 9.9142826], [76.9786164, 9.9233676], [76.9781957, 9.9247726], [76.9714736, 9.9293926], [76.970828, 9.931032], [76.974049, 9.937689], [76.9809908, 9.9457096], [76.9833685, 9.9497749], [76.9833324, 9.9512535], [76.9623912, 9.958108], [76.9531605, 9.9647936], [76.9479106, 9.9647566], [76.9425102, 9.9689258], [76.9397054, 9.9726889], [76.9321585, 9.9754933], [76.9163178, 9.9856611], [76.9123702, 9.9860188], [76.9056125, 9.9901795], [76.9024296, 9.9906314], [76.8973255, 9.995018], [76.8819178, 10.0026779], [76.8714513, 10.0091374], [76.8645502, 10.0120083], [76.8513598, 10.0203008], [76.838676, 10.0256], [76.8328072, 10.0260424], [76.8165175, 10.0367154], [76.8097994, 10.0369023], [76.8052412, 10.0414876], [76.8006437, 10.0410735], [76.7969638, 10.0425041], [76.7895274, 10.0471252], [76.7857137, 10.0507299], [76.7805062, 10.0586823], [76.7668687, 10.0605479], [76.7626573, 10.0669499], [76.7577234, 10.0678521], [76.754675, 10.0719292], [76.74738, 10.075694], [76.7409483, 10.0848195], [76.7266226, 10.0915507], [76.7173892, 10.1020463], [76.7106052, 10.1071118], [76.7069048, 10.1111016], [76.6991516, 10.1156813], [76.6853721, 10.1291249], [76.6822356, 10.1307381], [76.6767907, 10.1387346], [76.6711696, 10.1418394], [76.661426, 10.1371365], [76.657954, 10.1377979], [76.6541887, 10.1447657], [76.6503382, 10.149086], [76.6465842, 10.1572342], [76.6344178, 10.1658304], [76.627916, 10.1730959], [76.6237962, 10.1728846], [76.6127133, 10.1694526], [76.604656, 10.1712795], [76.6020167, 10.1734338], [76.5940617, 10.1734176], [76.5913477, 10.1742451], [76.5844672, 10.1811612], [76.5797838, 10.1833612], [76.5708172, 10.1815016], [76.5690148, 10.1819663], [76.5607382, 10.1953963], [76.5574772, 10.1959791], [76.5503085, 10.1946823], [76.5296365, 10.1960117], [76.5142118, 10.1932018], [76.5101794, 10.1856955], [76.5024376, 10.1817449], [76.5002224, 10.1816013], [76.491416, 10.1850422], [76.4859729, 10.1837355], [76.4761929, 10.1837791], [76.4689354, 10.1812964], [76.4632709, 10.175634], [76.4608813, 10.1715831], [76.4321422, 10.1554181], [76.4298034, 10.1524294], [76.4298155, 10.1464929], [76.4322494, 10.144402], [76.4418966, 10.1469721], [76.4486674, 10.145099], [76.4500835, 10.143008], [76.4491984, 10.1396537], [76.4499065, 10.1380855], [76.4556151, 10.1348183], [76.4574295, 10.1320303], [76.4541009, 10.1239869], [76.4517839, 10.1213083], [76.4466663, 10.1197176], [76.4434438, 10.1200106], [76.4362668, 10.1227236], [76.4285668, 10.1198048], [76.4222747, 10.1161783], [76.4133879, 10.1150562], [76.4082988, 10.1190642], [76.3997137, 10.1228978], [76.3894027, 10.1235949], [76.379479, 10.1200287], [76.3741951, 10.1141311], [76.3709581, 10.1121486], [76.3636839, 10.112024], [76.357514, 10.115504], [76.3530438, 10.1227166], [76.3506463, 10.1243826], [76.3486888, 10.1254825], [76.3415798, 10.1256262], [76.3396653, 10.1275373], [76.3380825, 10.1316344], [76.3374388, 10.1419106], [76.3357329, 10.1455014], [76.329596, 10.1506762], [76.3251328, 10.1520808], [76.3158953, 10.1499053], [76.3061642, 10.1452268], [76.3005209, 10.1391435], [76.2967658, 10.1371791], [76.2933326, 10.1371791], [76.2714886, 10.1510776], [76.2638497, 10.1613848], [76.2389776, 10.1816059], [76.22652, 10.1849962], [76.2183182, 10.19227], [76.2129628, 10.1942859], [76.2058097, 10.195565], [76.1979115, 10.1930106], [76.1913375, 10.1932045], [76.1827163, 10.1907408], [76.16995, 10.1851805], [76.1628372, 10.1768979]], [[76.357514, 10.115504], [76.3497016, 10.1143661], [76.3470188, 10.1115783], [76.3463805, 10.1101101], [76.34764, 10.106614], [76.3458376, 10.0998118], [76.3433485, 10.0960937], [76.3445072, 10.0933474], [76.3419752, 10.0919953], [76.3401309, 10.0934953], [76.3372556, 10.0933896], [76.3340294, 10.0878969], [76.3328063, 10.0836295], [76.3309395, 10.081707], [76.3201249, 10.0826577], [76.3178718, 10.0820661], [76.3147175, 10.0778831], [76.3121641, 10.0766789], [76.302315, 10.0767423], [76.2994158, 10.0812942], [76.2983239, 10.0861012], [76.2943971, 10.0946994], [76.2912002, 10.0962856], [76.2856965, 10.095794], [76.2838614, 10.0945304], [76.2832391, 10.0886786], [76.2852561, 10.0830379], [76.2851274, 10.0802281], [76.2806213, 10.0716718], [76.2809861, 10.0664534], [76.2789261, 10.0544951], [76.2798273, 10.0485792], [76.2773168, 10.045917], [76.2719095, 10.0475439], [76.2680685, 10.0461916], [76.2674677, 10.0428744], [76.2692058, 10.0372118], [76.2688839, 10.0330493], [76.265558, 10.0310632], [76.2615669, 10.0309786], [76.2581551, 10.0268583], [76.2582195, 10.0225478], [76.2633693, 10.0145182], [76.2654501, 10.0010974], [76.2702034, 9.9833482], [76.2587768, 9.9754347]], [[76.4533582, 10.1676194], [76.4480853, 10.1673409], [76.4447808, 10.1659945], [76.4375871, 10.160804], [76.4321422, 10.1554181]]]}}, {"type": "Feature", "properties": {"id": "bharathapuzha", "name": "Bharathapuzha (Nila)", "featured": true, "gauge_town": "Shoranur", "gauge_coordinates": [76.2667, 10.7667], "outlet": "ponnani", "length_km": 124.0, "source": "OpenStreetMap"}, "geometry": {"type": "MultiLineString", "coordinates": [[[76.3543031, 10.7430565], [76.3485197, 10.7442601], [76.3452286, 10.748365], [76.3440172, 10.7472337], [76.3405166, 10.7475254], [76.3364903, 10.7497713], [76.3331309, 10.7489945], [76.3298077, 10.7459416], [76.3203987, 10.7448849], [76.3164425, 10.7460681], [76.3111854, 10.7512752], [76.3064531, 10.7524719], [76.3053167, 10.7511776], [76.2969589, 10.7517969], [76.2907684, 10.755075], [76.2783498, 10.7518391], [76.2719339, 10.7527719], [76.2616804, 10.7520109], [76.2595636, 10.7510064], [76.2581044, 10.7484345], [76.2543447, 10.7464934], [76.2485451, 10.7468323], [76.2442428, 10.7492356], [76.2436044, 10.7509062], [76.2436098, 10.7539788], [76.2461901, 10.7574466], [76.2478799, 10.7639446], [76.2416501, 10.7742188], [76.2345976, 10.7746162], [76.232323, 10.7727138], [76.2304723, 10.7724556], [76.2288737, 10.7733514], [76.2262344, 10.7798649], [76.2221789, 10.7821625], [76.205458, 10.7769455], [76.1956759, 10.7814452], [76.1895311, 10.7812667], [76.1823267, 10.7860673], [76.1825627, 10.7904833], [76.1843061, 10.7954103], [76.1828899, 10.798709], [76.1761737, 10.8002055], [76.1674339, 10.7939596], [76.1644482, 10.792884], [76.1617387, 10.7945878], [76.1574089, 10.8016809], [76.15242, 10.8034093], [76.1432683, 10.809901], [76.138097, 10.8105755], [76.1316545, 10.8092238], [76.1251581, 10.8041786], [76.1216926, 10.8050427], [76.1188013, 10.8078566], [76.1136621, 10.8082201], [76.108336, 10.8098417], [76.1009484, 10.8138213], [76.0954285, 10.8194856], [76.0933202, 10.8232951], [76.094318, 10.8310351], [76.0911103, 10.8340256], [76.0900426, 10.8395073], [76.087752, 10.8406401], [76.0817921, 10.8403925], [76.0793084, 10.838501], [76.0756422, 10.8375921], [76.0746057, 10.8362414], [76.0722657, 10.8370176], [76.0708837, 10.8360167], [76.0677427, 10.8360352], [76.0607743, 10.8409246], [76.0578078, 10.8411195], [76.0496056, 10.8441596], [76.0415965, 10.8490435], [76.0381794, 10.8451501], [76.038233, 10.8365726], [76.0369456, 10.8315884], [76.0359853, 10.8308454], [76.0273594, 10.8317253], [76.0218769, 10.8361827], [76.0223222, 10.8435484], [76.0197365, 10.8524206], [76.017977, 10.8550338], [76.0193396, 10.8561928], [76.015681, 10.8602706], [76.0147798, 10.8628731], [75.9998184, 10.8661026], [75.9961116, 10.8661552], [75.9769392, 10.8608396], [75.9736133, 10.8572887], [75.9674978, 10.8545596], [75.9644186, 10.8520308], [75.9587431, 10.8454346], [75.9578633, 10.8413356], [75.9592795, 10.8284587], [75.9625625, 10.821609], [75.9623977, 10.8165454], [75.960921, 10.813737], [75.9473705, 10.7983612], [75.9343886, 10.7931444], [75.9262991, 10.7917427], [75.9114273, 10.7874003]], [[76.3580259, 10.7473963], [76.3543031, 10.7430565]], [[76.3580259, 10.7473963], [76.3564936, 10.7434813], [76.3553634, 10.7426298], [76.3543031, 10.7430565]], [[76.5501165, 10.7970965], [76.5451138, 10.7935177], [76.5395884, 10.7874261], [76.5371637, 10.7872048], [76.5330331, 10.7891651], [76.5251474, 10.788617], [76.5204053, 10.783126], [76.5159743, 10.7818824], [76.5135281, 10.7798799], [76.5094941, 10.7710793], [76.5043228, 10.769688], [76.499645, 10.770331], [76.4947312, 10.7662836], [76.4897739, 10.7645743], [76.4857828, 10.761349], [76.4778005, 10.7499759], [76.4756118, 10.7488797], [76.4735197, 10.7487427], [76.4690672, 10.7526954], [76.4670824, 10.75298], [76.4495408, 10.751167], [76.441934, 10.7492908], [76.4350568, 10.7512303], [76.4281429, 10.7509765], [76.4211132, 10.7492123], [76.4100033, 10.7498058], [76.4017083, 10.7462111], [76.3959684, 10.7458967], [76.3946756, 10.7466662], [76.393576, 10.7496734], [76.3899456, 10.7624283], [76.3854344, 10.7669024], [76.380459, 10.7687683], [76.3640168, 10.7644452], [76.3602215, 10.7585612], [76.3580259, 10.7473963]], [[76.7442173, 10.6921055], [76.737957, 10.6864125], [76.7310825, 10.6843593], [76.7216062, 10.6852053], [76.7201096, 10.6862912], [76.7189616, 10.6885316], [76.7189187, 10.693223], [76.7148203, 10.6969392], [76.7139834, 10.6993376], [76.7150027, 10.7020206], [76.7183232, 10.7043294], [76.718629, 10.7062533], [76.7171967, 10.707123], [76.710754, 10.7068384], [76.7081054, 10.7116218], [76.7064813, 10.7206534], [76.706441, 10.7268729], [76.7098394, 10.7290549], [76.7124009, 10.7323517], [76.7111885, 10.7360754], [76.7079645, 10.7391006], [76.702179, 10.7406027], [76.6926706, 10.7403102], [76.6909406, 10.743259], [76.6853723, 10.745744], [76.669845, 10.7503687], [76.6677931, 10.7497315], [76.6658431, 10.7472487], [76.6533977, 10.7479074], [76.6283297, 10.7536099], [76.6226649, 10.7536995], [76.6173434, 10.7568932], [76.6160093, 10.7563643], [76.612494, 10.7507903], [76.6103321, 10.749947], [76.6053566, 10.7550249], [76.6050643, 10.7583636], [76.6011737, 10.7608458], [76.5964329, 10.7671171], [76.5924472, 10.7675703], [76.5883595, 10.7645085], [76.5863505, 10.7645638], [76.5848136, 10.7654781], [76.5825552, 10.7704793]]]}}, {"type": "Feature", "properties": {"id": "pamba", "name": "Pamba", "featured": true, "gauge_town": "Chengannur", "gauge_coordinates": [76.6167, 9.3167], "outlet": "thottappally", "length_km": 163.0, "source": "OpenStreetMap"}, "geometry": {"type": "MultiLineString", "coordinates": [[[77.1595887, 9.391125], [77.1582109, 9.3925346], [77.1577562, 9.3966567], [77.15542, 9.3966641], [77.154652, 9.3991405], [77.1509582, 9.4000499], [77.150065, 9.4028151], [77.1466143, 9.4020775], [77.1464896, 9.4044614], [77.1489465, 9.4077793], [77.1480286, 9.411247], [77.1428418, 9.4098804], [77.141097, 9.4125681], [77.140224, 9.4164003], [77.1439509, 9.4184318], [77.1442406, 9.4212048], [77.1428204, 9.4223433], [77.1436465, 9.4268892], [77.1402293, 9.429133], [77.1373084, 9.4291674], [77.136084, 9.4327466], [77.1305519, 9.4349884], [77.1273279, 9.4399601], [77.1253645, 9.4403887], [77.1253954, 9.4414781], [77.1231651, 9.4414841], [77.1214056, 9.4433865], [77.1192464, 9.441844], [77.1136339, 9.4412399], [77.1109571, 9.4360408], [77.1081126, 9.4362003], [77.1057187, 9.4338335], [77.1032336, 9.4344407], [77.0998782, 9.4335411], [77.0987745, 9.4323974], [77.0987383, 9.4297177], [77.0963739, 9.4287247], [77.0930305, 9.4292309], [77.0897295, 9.4246135], [77.0867327, 9.4247644], [77.0850724, 9.4236452], [77.0849732, 9.4215575], [77.0823297, 9.4232284], [77.0793861, 9.4199751], [77.0761876, 9.4200691], [77.075619, 9.4173132], [77.0731674, 9.4172325], [77.0726323, 9.4146394], [77.0701448, 9.4133972], [77.0681477, 9.4137106], [77.0659656, 9.4168674], [77.0589182, 9.4157639], [77.0552529, 9.4178623], [77.049399, 9.4158724], [77.0470883, 9.4132793], [77.0379044, 9.412848], [77.0351283, 9.4090931], [77.0318301, 9.4093771], [77.0276664, 9.4070305], [77.0250513, 9.4093895], [77.0215979, 9.4064761], [77.0161249, 9.4076391], [77.0128016, 9.4095654], [77.009756, 9.4095416], [77.0109254, 9.4116255], [77.0104158, 9.4153207], [77.0120745, 9.4181561], [77.0117292, 9.4199824], [77.0102511, 9.4204979], [77.0053537, 9.4189674], [77.0026462, 9.4191242], [76.9975291, 9.4235523], [76.9925485, 9.4214342], [76.989184, 9.4220343], [76.9873419, 9.4234115], [76.9822075, 9.4231616], [76.9759548, 9.4245184], [76.9753111, 9.4221832], [76.9733262, 9.4218127], [76.9713202, 9.4244478], [76.9690587, 9.424932], [76.9648329, 9.4227068], [76.9610203, 9.4227229], [76.9593547, 9.4200851], [76.9509781, 9.4204262], [76.9494009, 9.4191561], [76.9430173, 9.418701], [76.9370306, 9.4209977], [76.9350608, 9.4203244], [76.932911, 9.4177878], [76.9270801, 9.4153107], [76.9247676, 9.4153249], [76.9220846, 9.4164507], [76.9241714, 9.4227449], [76.9234938, 9.4238104], [76.9198644, 9.4253439], [76.9156791, 9.4250697], [76.912837, 9.4240527], [76.9107878, 9.4214014], [76.9045878, 9.4207541], [76.898881, 9.4138837], [76.8953825, 9.4169545], [76.8932483, 9.4173175], [76.8922291, 9.4159794], [76.8937526, 9.412169], [76.8932161, 9.4098616], [76.8909126, 9.4073295], [76.8853197, 9.4068345], [76.880878, 9.4117457], [76.8763038, 9.4131781], [76.8679322, 9.4054107], [76.8651357, 9.4009093], [76.8592057, 9.4004625], [76.8568637, 9.3956148], [76.8513061, 9.3934343], [76.8502654, 9.3915079], [76.8529906, 9.387475], [76.8517829, 9.3857984], [76.8460597, 9.3866811], [76.8428518, 9.38648], [76.8415107, 9.3854426], [76.8388512, 9.381605], [76.8440661, 9.3720879], [76.8469796, 9.3689183], [76.8466184, 9.3680781], [76.8412005, 9.3685737], [76.8391988, 9.3672958], [76.8367999, 9.3627758], [76.8370125, 9.3577762], [76.8350905, 9.3553449], [76.8344353, 9.3518651], [76.8306715, 9.3447707], [76.8285592, 9.3432731], [76.8260565, 9.3442124], [76.823498, 9.3480103], [76.8168242, 9.3502659], [76.809526, 9.3566653], [76.8058758, 9.3573624], [76.8021078, 9.3615448], [76.7972213, 9.362939], [76.7951606, 9.3657854], [76.7876832, 9.3667799], [76.7860136, 9.3690233], [76.7870871, 9.3751941], [76.7860471, 9.3784009], [76.7773044, 9.3803739], [76.7704276, 9.3718723], [76.7707637, 9.3698386], [76.7741682, 9.3655287], [76.7743372, 9.3631075], [76.7707866, 9.3587566], [76.7670139, 9.3514622], [76.7623087, 9.3501589], [76.7577753, 9.3455116], [76.7541624, 9.3439776], [76.745706, 9.3483], [76.7348731, 9.3515532], [76.7322238, 9.3515532], [76.7261016, 9.3487391], [76.7230546, 9.3489826], [76.721332, 9.3510303], [76.7190751, 9.3576976], [76.717093, 9.3594536], [76.7140904, 9.3600346], [76.7122945, 9.358608], [76.7122653, 9.3521341], [76.7104065, 9.3509927], [76.7074148, 9.3521961], [76.7046261, 9.3521064], [76.7025243, 9.3505595], [76.7046116, 9.340225], [76.7007848, 9.3333117], [76.6961926, 9.3336603], [76.6853008, 9.3286642], [76.6787657, 9.3289546], [76.6723829, 9.33531], [76.6652442, 9.3328398], [76.6498597, 9.329574], [76.644791, 9.3304437], [76.6410835, 9.3322419], [76.6387904, 9.3293391], [76.6336118, 9.3266454], [76.6277289, 9.3283968], [76.6240007, 9.3258507], [76.6217261, 9.3274546], [76.61617, 9.326728], [76.6094918, 9.3349531], [76.602166, 9.3317098], [76.5965885, 9.3334838], [76.5907467, 9.3253589], [76.5876568, 9.324639], [76.5717405, 9.3295826], [76.5707053, 9.3326216], [76.5621866, 9.3342519], [76.5608185, 9.3369245], [76.5610219, 9.3400897], [76.55513, 9.3399697], [76.5455569, 9.3442457], [76.5433682, 9.3442457], [76.5413941, 9.34342], [76.5404499, 9.3392277], [76.5362439, 9.3365229], [76.5332561, 9.330024], [76.5307134, 9.3292782], [76.5277276, 9.3263429], [76.514589, 9.3265973], [76.5025014, 9.3237648], [76.4974273, 9.3242367], [76.4926852, 9.3277304], [76.4864199, 9.3295297], [76.4811624, 9.328535], [76.4721678, 9.3285306], [76.4629984, 9.3254272], [76.4563867, 9.3301566], [76.4526623, 9.3294441], [76.4514091, 9.3256391], [76.4442609, 9.3274221], [76.443197, 9.3302962], [76.4493581, 9.3485889], [76.4465365, 9.3485254], [76.4427653, 9.3520453], [76.4369771, 9.3530669], [76.4343405, 9.3528393], [76.4289278, 9.3503568], [76.4275035, 9.3585505], [76.4235151, 9.3613029], [76.4223396, 9.3637148], [76.423085, 9.3694068], [76.4302206, 9.373675], [76.4270797, 9.383919], [76.4216268, 9.3875365], [76.4150626, 9.3944863], [76.411212, 9.3965534], [76.404546, 9.3960896], [76.3977184, 9.3934937], [76.3889621, 9.3961504], [76.3863545, 9.398768], [76.3845921, 9.4038524], [76.3805687, 9.410092], [76.3795602, 9.4165168], [76.3757461, 9.420851], [76.3752371, 9.4286005], [76.3701028, 9.4388647], [76.3706446, 9.4439289], [76.3665569, 9.4458128], [76.3631129, 9.4548508], [76.3623512, 9.4673281], [76.3649046, 9.4722278], [76.3643253, 9.4808049], [76.3656425, 9.4891773]], [[76.380584, 9.5178624], [76.3834663, 9.5152933], [76.3823279, 9.503088], [76.3853039, 9.4960149], [76.384816, 9.4877226], [76.3874016, 9.4805048], [76.3873691, 9.4693088], [76.3978255, 9.4576153], [76.3975816, 9.4548723], [76.3990736, 9.4522897], [76.4052613, 9.4512871], [76.4090843, 9.4533327]], [[77.2122366, 9.4373788], [77.2074085, 9.4394516], [77.2026448, 9.4375042], [77.2024303, 9.4347102], [77.1978812, 9.4271956], [77.194051, 9.4259891], [77.1897273, 9.4231102], [77.1894806, 9.4221682], [77.1922508, 9.4181177], [77.1901994, 9.4143994], [77.1906393, 9.4125048], [77.1865194, 9.4075513], [77.1850817, 9.4043759], [77.1833437, 9.403508], [77.1858435, 9.4003431], [77.1884935, 9.4003749], [77.1897724, 9.3987586], [77.191916, 9.3991788], [77.1921413, 9.3978451], [77.1933773, 9.3972132], [77.192034, 9.3962574], [77.1920769, 9.3945744], [77.197495, 9.3922351], [77.1977203, 9.3888267], [77.2028165, 9.3879799], [77.1991043, 9.3795011], [77.199718, 9.3777683], [77.1949415, 9.3779556], [77.1928945, 9.3797054], [77.1870666, 9.3773946], [77.1821362, 9.3785119], [77.1822113, 9.3803537], [77.1802318, 9.3806448], [77.1790838, 9.3820368], [77.1755862, 9.3810047], [77.1741485, 9.3828889], [77.1687515, 9.3818684]]]}}, {"type": "Feature", "properties": {"id": "chaliyar", "name": "Chaliyar", "featured": false, "gauge_town": "Nilambur", "gauge_coordinates": [76.2333, 11.2767], "outlet": "beypore", "length_km": 103.3, "source": "OpenStreetMap"}, "geometry": {"type": "LineString", "coordinates": [[76.2130681, 11.5101845], [76.2164048, 11.5101004], [76.2213136, 11.5120999], [76.2290863, 11.5045705], [76.2284533, 11.5012184], [76.2295369, 11.4927856], [76.227359, 11.4897496], [76.2284855, 11.4853861], [76.2305132, 11.482571], [76.2276701, 11.4742843], [76.2284426, 11.4675245], [76.2314787, 11.4642358], [76.2332596, 11.4575506], [76.2368499, 11.4541126], [76.2386738, 11.4500466], [76.2387274, 11.4473967], [76.2365817, 11.4449788], [76.2372469, 11.4425602], [76.2366675, 11.438645], [76.2445178, 11.4327303], [76.2429876, 11.4292664], [76.2445567, 11.4254743], [76.2444763, 11.4219036], [76.2421481, 11.4203118], [76.2418048, 11.4181559], [76.2464265, 11.4154515], [76.2513404, 11.4169659], [76.254559, 11.4152832], [76.2528211, 11.40899], [76.2432874, 11.401036], [76.2461928, 11.3983644], [76.2467721, 11.3930847], [76.2490681, 11.3912757], [76.2506635, 11.3877901], [76.2570013, 11.3851069], [76.2547786, 11.3811559], [76.2547958, 11.3766808], [76.2507278, 11.3731371], [76.2503845, 11.3715804], [76.2576587, 11.3718538], [76.2591392, 11.3711807], [76.2562851, 11.3663542], [76.2572077, 11.3639981], [76.2562636, 11.359503], [76.2573541, 11.3557675], [76.2614521, 11.3494577], [76.2597141, 11.3452681], [76.2586098, 11.3359283], [76.2625948, 11.330844], [76.2579472, 11.3250253], [76.2528866, 11.327784], [76.2483638, 11.3267012], [76.2479701, 11.3228314], [76.2461456, 11.3217015], [76.2431434, 11.3170777], [76.2413084, 11.3156454], [76.2389374, 11.3154981], [76.2375167, 11.3138593], [76.2368025, 11.3112596], [76.2396025, 11.3072732], [76.2405984, 11.3027432], [76.2381876, 11.3000793], [76.2322823, 11.2970793], [76.231168, 11.2938134], [76.2311826, 11.2869865], [76.2269845, 11.2813021], [76.2254479, 11.2811763], [76.2246997, 11.2829382], [76.2202822, 11.2863503], [76.2170097, 11.2868963], [76.2140742, 11.2861662], [76.212961, 11.283356], [76.2163175, 11.2779964], [76.2159917, 11.2756482], [76.2095069, 11.2715374], [76.2066619, 11.2680192], [76.1982252, 11.2668513], [76.1845544, 11.25706], [76.1806896, 11.2535318], [76.1766448, 11.2458752], [76.1714885, 11.2414582], [76.1658886, 11.2388166], [76.1619578, 11.239844], [76.1600916, 11.2390603], [76.1594806, 11.2377315], [76.1605033, 11.232936], [76.1591364, 11.2315756], [76.157953, 11.2311407], [76.1568869, 11.2322807], [76.1547505, 11.2377775], [76.1513202, 11.2397119], [76.149419, 11.2393189], [76.1479387, 11.2378982], [76.1490299, 11.2357173], [76.153095, 11.2324096], [76.1527249, 11.2301018], [76.1517164, 11.2280292], [76.1496358, 11.2270634], [76.1470566, 11.226552], [76.1439278, 11.22825], [76.1425715, 11.2277691], [76.1417465, 11.2255], [76.145013, 11.2213573], [76.1423115, 11.2191346], [76.1392586, 11.2193488], [76.1327446, 11.2251958], [76.1310226, 11.2255073], [76.1261973, 11.2224928], [76.1201532, 11.226206], [76.1131156, 11.2221286], [76.1083472, 11.2238677], [76.1060201, 11.2231316], [76.0966261, 11.2140196], [76.0950338, 11.2145448], [76.0943872, 11.220338], [76.0927027, 11.2215956], [76.0899407, 11.2217842], [76.0860079, 11.2190894], [76.0787783, 11.2216345], [76.063626, 11.221479], [76.0592486, 11.222703], [76.0579216, 11.2240242], [76.0582781, 11.2302994], [76.0513134, 11.2402655], [76.0480602, 11.2421385], [76.0462571, 11.2414097], [76.0423498, 11.2372888], [76.0386303, 11.236959], [76.0362257, 11.238277], [76.036155, 11.2441501], [76.0346462, 11.2460923], [76.0293891, 11.2463004], [76.0227882, 11.2389938], [76.0170832, 11.2365659], [76.0151247, 11.2365132], [76.0104587, 11.2395256], [76.0021369, 11.2472022], [76.0004395, 11.2476877], [75.9963847, 11.2427165], [75.9936265, 11.2425084], [75.9932021, 11.2463235], [75.9960547, 11.2502542], [75.9963847, 11.2527282], [75.9955124, 11.2547398], [75.9749856, 11.2688208], [75.9659499, 11.2626702], [75.9629088, 11.2572831], [75.9593255, 11.2532138], [75.9556479, 11.2513872], [75.9310624, 11.2473205], [75.9248409, 11.2455192], [75.9224395, 11.2435786], [75.9186195, 11.2376382], [75.9160483, 11.2364673], [75.9125587, 11.2370528], [75.9083346, 11.2402502], [75.9017687, 11.2432675], [75.900024, 11.242637], [75.898371, 11.2323692], [75.895157, 11.229577], [75.8906573, 11.2294418], [75.8853771, 11.2279106], [75.877893, 11.2225963], [75.874128, 11.2150751], [75.8689396, 11.2110216], [75.8648532, 11.2059772], [75.8609067, 11.2055309], [75.8574745, 11.2081271], [75.847176, 11.2098056], [75.8409316, 11.2062024], [75.8360646, 11.1980952], [75.8367125, 11.1879112], [75.8346046, 11.1827811], [75.8325371, 11.1812301], [75.8224026, 11.1796791], [75.8182272, 11.1779293], [75.8106872, 11.1669926], [75.8030167, 11.1615964]]}}, {"type": "Feature", "properties": {"id": "chalakudy", "name": "Chalakudy", "featured": false, "gauge_town": "Chalakudy", "gauge_coordinates": [76.35, 10.3], "outlet": "azhikode", "length_km": 71.1, "source": "OpenStreetMap"}, "geometry": {"type": "LineString", "coordinates": [[76.649577, 10.3204924], [76.641792, 10.3177174], [76.6383382, 10.3133449], [76.6293773, 10.3189062], [76.6250571, 10.3183512], [76.6226078, 10.3169231], [76.6212186, 10.3145747], [76.6160669, 10.3133413], [76.6160144, 10.3112957], [76.6093645, 10.3059374], [76.6079376, 10.3017995], [76.5939151, 10.3027105], [76.5914121, 10.299882], [76.5869969, 10.2985588], [76.5839891, 10.3010305], [76.5774023, 10.3032091], [76.5662319, 10.2937905], [76.5668014, 10.2922781], [76.5734183, 10.2872374], [76.5738339, 10.2852032], [76.5622008, 10.2854026], [76.5540376, 10.2831763], [76.5476489, 10.2893424], [76.545648, 10.2899758], [76.5340376, 10.2882279], [76.5250184, 10.2841529], [76.5218317, 10.2847414], [76.5167285, 10.2876521], [76.5086532, 10.2889668], [76.4976542, 10.2877077], [76.4953392, 10.2915167], [76.4911315, 10.2934996], [76.4838255, 10.2914419], [76.4781347, 10.2927595], [76.4737392, 10.2913805], [76.4591088, 10.2964607], [76.4461029, 10.2958723], [76.4427717, 10.2934432], [76.4376712, 10.2943505], [76.4313591, 10.2900917], [76.4285276, 10.2896251], [76.4033389, 10.298573], [76.3994305, 10.3025117], [76.3952197, 10.3048958], [76.3790084, 10.3177915], [76.3772464, 10.3181643], [76.3753581, 10.3169821], [76.3686185, 10.3052303], [76.3663049, 10.3027027], [76.3614169, 10.3054157], [76.3551146, 10.3123939], [76.351676, 10.3129085], [76.3486646, 10.304165], [76.3453425, 10.3001379], [76.3455174, 10.2970865], [76.3477404, 10.2925783], [76.3465878, 10.2883058], [76.3440947, 10.2876189], [76.3373955, 10.2942719], [76.3332248, 10.2945691], [76.3312303, 10.2931137], [76.3287974, 10.2880396], [76.3227427, 10.286709], [76.3173373, 10.2824786], [76.3071223, 10.2790005], [76.2987459, 10.2666193], [76.2995983, 10.2645229], [76.3020087, 10.265235], [76.3050361, 10.2645924], [76.3214241, 10.2536673], [76.326558, 10.2435425], [76.3320659, 10.2394478], [76.3357019, 10.2339647], [76.335744, 10.2318858], [76.3299629, 10.2223533], [76.3325973, 10.2142971], [76.3322193, 10.210657], [76.3305092, 10.2086267], [76.3247397, 10.207211], [76.3226849, 10.204493], [76.3229698, 10.2029683], [76.3269527, 10.2031296], [76.3291451, 10.2014722], [76.3260512, 10.1970756], [76.3271397, 10.1925854], [76.3245096, 10.1860328], [76.3170428, 10.1802186], [76.3021248, 10.1850927], [76.299659, 10.1839399], [76.2993755, 10.1807202], [76.2943234, 10.1762592], [76.2868735, 10.1782184], [76.280396, 10.1740092], [76.2739882, 10.1754163], [76.2728799, 10.1704745], [76.2693915, 10.1672745], [76.2673581, 10.1630956], [76.2638497, 10.1613848]]}}, {"type": "Feature", "properties": {"id": "achankovil", "name": "Achankovil", "featured": false, "gauge_town": "Konni", "gauge_coordinates": [76.85, 9.2333], "outlet": "thottappally", "length_km": 155.6, "source": "OpenStreetMap"}, "geometry": {"type": "MultiLineString", "coordinates": [[[77.0646127, 9.1193185], [77.0609191, 9.118623], [77.058476, 9.1169827], [77.0574016, 9.1178444], [77.0555308, 9.1256024], [77.0538757, 9.1277381], [77.0525007, 9.1280628], [77.0455532, 9.1225239], [77.0427907, 9.124219], [77.0402808, 9.1240657], [77.0325557, 9.1264722], [77.0308363, 9.127388], [77.0296232, 9.1298092], [77.0277008, 9.1297284], [77.0254424, 9.1282391], [77.0222702, 9.1307634], [77.0176784, 9.1314516], [77.0169969, 9.1359855], [77.0128767, 9.1371929], [77.010286, 9.1400392], [77.0086078, 9.1398237], [77.0050832, 9.1363489], [77.0036368, 9.1360989], [77.0011797, 9.1381029], [76.9915525, 9.1385588], [76.985984, 9.1416585], [76.9840012, 9.1412841], [76.9805593, 9.1432608], [76.9801651, 9.1468442], [76.9793294, 9.1473666], [76.9764558, 9.1461319], [76.9739588, 9.1484128], [76.9690957, 9.1488111], [76.9666852, 9.1511064], [76.9624163, 9.1475345], [76.9616282, 9.1477859], [76.9610754, 9.1508056], [76.9566113, 9.1516787], [76.9520097, 9.157669], [76.9490358, 9.1584334], [76.9414888, 9.1632108], [76.9410368, 9.1664167], [76.9392973, 9.1680977], [76.9348484, 9.168267], [76.9336754, 9.1705874], [76.9286129, 9.1735165], [76.9281474, 9.1754636], [76.9228018, 9.1799903], [76.9144597, 9.1852844], [76.9120857, 9.189162], [76.9091195, 9.1891874], [76.9072021, 9.1912021], [76.9047647, 9.1920273], [76.9019317, 9.1956909], [76.8867327, 9.2056801], [76.8852712, 9.2082434], [76.8834143, 9.2087138], [76.8804459, 9.2074322], [76.8727019, 9.2127202], [76.8633085, 9.2155636], [76.86242, 9.218381], [76.8590459, 9.2185888], [76.8557965, 9.2225466], [76.8579286, 9.2237135], [76.8561394, 9.2265872], [76.8563136, 9.2300161], [76.8526129, 9.2317883], [76.8499378, 9.2395841], [76.8446063, 9.2454362], [76.8386364, 9.2454435], [76.8370996, 9.2491836], [76.832459, 9.2522645], [76.8280857, 9.2505017], [76.8184949, 9.2503914], [76.8173718, 9.2514689], [76.8174632, 9.2541946], [76.8134962, 9.2585568], [76.8105922, 9.25943], [76.8085727, 9.262004], [76.8053195, 9.2574829], [76.7998044, 9.2610449], [76.7982326, 9.2608153], [76.798646, 9.259525], [76.8005514, 9.2597992], [76.8012038, 9.2583136], [76.8007015, 9.2553304], [76.7986512, 9.2519954], [76.7958773, 9.2550875], [76.7886469, 9.2579895], [76.7879266, 9.2567546], [76.7889242, 9.2522905], [76.7847932, 9.2502696], [76.7841713, 9.2491455], [76.7855186, 9.2467367], [76.7850618, 9.2456933], [76.782401, 9.2477159], [76.7814891, 9.2466781], [76.7870788, 9.2421564], [76.7854695, 9.2379417], [76.7882254, 9.2366972], [76.7882268, 9.2359283], [76.7841871, 9.2354668], [76.7836473, 9.2309749], [76.7805855, 9.2301201], [76.7795849, 9.2276422], [76.7776322, 9.2286377], [76.7761009, 9.2310084], [76.7711679, 9.2326393], [76.7704923, 9.2345419], [76.7662687, 9.232168], [76.7629498, 9.2319364], [76.7612305, 9.2289077], [76.7583304, 9.231665], [76.7537203, 9.2311978], [76.7540561, 9.2359053], [76.7524034, 9.2338638], [76.749484, 9.2336081], [76.7463684, 9.235214], [76.7440832, 9.2386344], [76.742383, 9.2313741], [76.7369051, 9.2313895], [76.7345084, 9.2335023], [76.7297507, 9.2305227], [76.7270106, 9.2331112], [76.7257905, 9.2308245], [76.7198161, 9.2272212], [76.7159951, 9.2230832], [76.7135408, 9.2282723], [76.7113548, 9.2288441], [76.7087345, 9.2288156], [76.7075469, 9.2256456], [76.7062265, 9.2251165], [76.704508, 9.2248539], [76.7015249, 9.227099], [76.6975664, 9.2276725], [76.6947734, 9.2257519], [76.6933009, 9.2258578], [76.6929101, 9.226928], [76.6946807, 9.2301259], [76.6883844, 9.2337949], [76.6860992, 9.2313751], [76.6813409, 9.233456], [76.6769206, 9.2336149], [76.6743243, 9.2360055], [76.6727284, 9.232037], [76.6708615, 9.2312057], [76.6686863, 9.2400058], [76.6654783, 9.2396325], [76.6636866, 9.2376787], [76.6603768, 9.2406067], [76.6584365, 9.2401584], [76.6559324, 9.241949], [76.6538858, 9.2404268], [76.6537249, 9.2373743], [76.6495889, 9.2360876], [76.6468906, 9.2375013], [76.6429102, 9.2346209], [76.6390188, 9.2341228], [76.6354108, 9.2370936], [76.632176, 9.2438789], [76.6301483, 9.2383326], [76.6257495, 9.236993], [76.6275305, 9.2352192], [76.6271657, 9.2302473], [76.6228366, 9.2296384], [76.6211736, 9.2265594], [76.6180006, 9.2265223], [76.6161599, 9.2278943], [76.613878, 9.2336414], [76.6088071, 9.2352493], [76.6071039, 9.2393539], [76.600495, 9.2377311], [76.5994933, 9.2395928], [76.5961406, 9.2413268], [76.596977, 9.2439519], [76.5962264, 9.2455918], [76.593238, 9.2447287], [76.5910966, 9.2453173], [76.5873902, 9.2517923], [76.5779445, 9.2588363], [76.5767955, 9.2635012], [76.5770976, 9.2676674], [76.5762144, 9.2687078], [76.5729047, 9.2652605], [76.5706515, 9.2649223], [76.5664996, 9.2671919], [76.5628087, 9.2721332], [76.5611297, 9.2721121], [76.5586567, 9.270169], [76.5539313, 9.2713623], [76.5519941, 9.269809], [76.5521655, 9.2662824], [76.5497839, 9.2636145], [76.5487473, 9.2599944], [76.545958, 9.2604235], [76.5453272, 9.2626697], [76.5460074, 9.26587], [76.5447238, 9.2667234], [76.5407771, 9.2607873], [76.53949, 9.2561058], [76.5296298, 9.2615603], [76.5275687, 9.2608793], [76.5266901, 9.2583254], [76.5251291, 9.2577588], [76.522404, 9.2620215], [76.5210737, 9.267083], [76.5194938, 9.268496], [76.5175009, 9.2683531], [76.5149957, 9.2660765], [76.5105271, 9.2666324], [76.5061819, 9.2658647], [76.5020353, 9.2632969], [76.4954692, 9.2650599], [76.4882273, 9.2648422], [76.4885491, 9.2688137], [76.4905286, 9.2721491], [76.4902753, 9.2769052], [76.4927334, 9.2883759], [76.489394, 9.2983974], [76.4900406, 9.3026225], [76.4844936, 9.3027966], [76.4823264, 9.3039983], [76.4821494, 9.3053536], [76.4847177, 9.3104451], [76.4845956, 9.3125907], [76.4757704, 9.313039], [76.4747572, 9.3168198], [76.4685024, 9.3190913], [76.4641888, 9.3255347]], [[77.1733136, 9.0848955], [77.1721745, 9.0818654], [77.1709929, 9.0812546], [77.1716042, 9.0786937], [77.1691631, 9.0796423], [77.1679101, 9.0787038], [77.164816, 9.0800763], [77.1630289, 9.0826673], [77.1559976, 9.0826092], [77.1556601, 9.0871912], [77.154624, 9.0880496], [77.151945, 9.0869855], [77.1522422, 9.0851156], [77.1465571, 9.0842778], [77.1456598, 9.0864873], [77.1433161, 9.0862703], [77.1415914, 9.0873554], [77.130474, 9.089233], [77.128894, 9.0913863], [77.1255648, 9.0921622], [77.1231771, 9.0942555], [77.1212807, 9.0939096], [77.1189454, 9.0951526], [77.1137844, 9.0936448], [77.1119312, 9.0942742], [77.1105943, 9.0932114], [77.1055288, 9.0954173], [77.104417, 9.0968578], [77.1059554, 9.0970043], [77.1050395, 9.0982615], [77.1009646, 9.1002161], [77.0997358, 9.0994111], [77.0976529, 9.1005679], [77.0977902, 9.103022], [77.0955452, 9.1019691], [77.0900184, 9.1053901], [77.0810405, 9.1087414], [77.0798058, 9.1126275], [77.0743723, 9.1136703], [77.0718135, 9.112159], [77.067096, 9.1140344], [77.0672407, 9.1154882], [77.0653305, 9.1194622], [77.0646127, 9.1193185]], [[77.2486702, 9.1679887], [77.243674, 9.1637322], [77.2425475, 9.1642051], [77.2361607, 9.1618864], [77.2342935, 9.1574871], [77.2336838, 9.1531169], [77.2322936, 9.1529387], [77.2318393, 9.1518152], [77.2297006, 9.152454], [77.2270869, 9.151667], [77.2245802, 9.1479397], [77.2208467, 9.146607], [77.2188523, 9.1470621], [77.2172357, 9.1454263], [77.2141293, 9.1447943], [77.2132996, 9.1433581], [77.2117343, 9.1429635], [77.2115321, 9.1411482], [77.2056874, 9.1374503], [77.2021448, 9.1375628], [77.2003047, 9.1344313], [77.198161, 9.1337143], [77.1976285, 9.1307404], [77.1915049, 9.1312414], [77.1909468, 9.1303964], [77.1920298, 9.1289589], [77.1946843, 9.12839], [77.194638, 9.1268342], [77.1934725, 9.1257825], [77.1897512, 9.1260155], [77.1906605, 9.1278242], [77.1882403, 9.1302298], [77.1862942, 9.126175], [77.1854926, 9.1261433], [77.1841513, 9.1318324], [77.17959, 9.126811], [77.1770996, 9.1275928], [77.1738807, 9.1246058], [77.1722985, 9.1257113], [77.1695123, 9.1251754], [77.1685095, 9.1263572], [77.1684402, 9.1286638], [77.1672095, 9.1296653], [77.1655984, 9.1277774], [77.1626343, 9.1268461], [77.1610892, 9.1314615], [77.1598067, 9.1314069], [77.158115, 9.1297133], [77.1502272, 9.1320781], [77.1484505, 9.1352921], [77.1472614, 9.1357083], [77.144593, 9.1342188], [77.1447158, 9.1324978], [77.1428667, 9.1290387], [77.136475, 9.1355767], [77.1314244, 9.1290641], [77.1305332, 9.1320059], [77.1267003, 9.1332592], [77.1254095, 9.136245], [77.1236137, 9.1368023], [77.1196395, 9.1359803], [77.1175151, 9.1405096], [77.1156236, 9.1405752], [77.1119926, 9.137901], [77.1093191, 9.1407116], [77.105841, 9.1395192], [77.1052438, 9.1426379], [77.0996524, 9.1448825], [77.0971293, 9.144154], [77.0963701, 9.1403822], [77.0943839, 9.1416668], [77.092513, 9.1414681], [77.0918998, 9.1404231], [77.0924731, 9.1357824], [77.0881777, 9.1378057], [77.0854271, 9.1379334], [77.0828863, 9.1351764], [77.0794243, 9.1354039], [77.078482, 9.1317988], [77.0753838, 9.1331312], [77.0721581, 9.1314659], [77.0671688, 9.1344386], [77.0649639, 9.1341275], [77.0641988, 9.1291119], [77.0660191, 9.1259325], [77.0647653, 9.1236104], [77.0646127, 9.1193185]]]}}, {"type": "Feature", "properties": {"id": "kabini", "name": "Kabini (Kabani)", "featured": false, "gauge_town": "Mananthavady", "gauge_coordinates": [76.0, 11.8], "outlet": null, "length_km": 66.5, "source": "OpenStreetMap"}, "geometry": {"type": "MultiLineString", "coordinates": [[[76.0750989, 11.79938], [76.0752475, 11.8012799], [76.0791186, 11.8087572], [76.0809755, 11.8094788], [76.0852898, 11.8080756], [76.0858906, 11.8131138], [76.0890991, 11.8129802], [76.0909592, 11.8146513], [76.0907074, 11.8210479], [76.0878111, 11.8275396], [76.0891724, 11.8293349], [76.0891048, 11.8337477], [76.0947139, 11.837669], [76.0975329, 11.8377351], [76.1024759, 11.8399745], [76.1091153, 11.8406634], [76.1207945, 11.8507158]], [[76.0975329, 11.8377351], [76.0961258, 11.836625], [76.0957584, 11.8351129], [76.0944521, 11.8326714], [76.0937615, 11.8300186], [76.0946922, 11.8274826], [76.0948102, 11.826426], [76.0944173, 11.8217083], [76.0948089, 11.8206687], [76.0955626, 11.8197866], [76.0957879, 11.8190856], [76.0957289, 11.8153156], [76.0949242, 11.8100516], [76.0942751, 11.8080117], [76.0896403, 11.8062001], [76.0872102, 11.8053757], [76.0866201, 11.8053757], [76.0854024, 11.8064417], [76.084954, 11.8079709], [76.0869237, 11.8053952], [76.094155, 11.8079681], [76.0956999, 11.8190578], [76.0944554, 11.8212526], [76.0942622, 11.8220297], [76.0947772, 11.8261461], [76.0937687, 11.8291809], [76.093361, 11.8316592], [76.0964797, 11.837566]], [[76.1500297, 11.8674259], [76.1559574, 11.8710728], [76.1615644, 11.8698698], [76.1650324, 11.8680873], [76.1721765, 11.8713751], [76.1787798, 11.8706983], [76.1842866, 11.8721236], [76.1892644, 11.8722443], [76.1998095, 11.8663509], [76.2019694, 11.8628153], [76.2052518, 11.8622295], [76.207955, 11.864327], [76.2097893, 11.868314], [76.2091714, 11.870128], [76.2061207, 11.8715452], [76.2043636, 11.8735292], [76.2041319, 11.87591], [76.2120484, 11.8771759], [76.2136896, 11.8780262], [76.2155625, 11.8810683], [76.2148674, 11.8833357], [76.2127049, 11.8853385], [76.2082446, 11.8853007], [76.2051746, 11.8873602], [76.205128, 11.8901742], [76.2075036, 11.8943426], [76.2075036, 11.8972817], [76.2125007, 11.9054578], [76.2119272, 11.9080228], [76.2056647, 11.9134207], [76.205064, 11.91652], [76.2056647, 11.9175353], [76.2101976, 11.9188864], [76.2144027, 11.9182299], [76.2194271, 11.9157719], [76.2254344, 11.9093595], [76.2275643, 11.9087717], [76.2295304, 11.9097336], [76.2352647, 11.9209551], [76.2331348, 11.9292374], [76.2352647, 11.9316418], [76.2461872, 11.930306], [76.2506654, 11.9233062], [76.2542152, 11.9206879], [76.2558536, 11.9216498], [76.2581473, 11.9287565], [76.2679229, 11.9350615], [76.2805009, 11.9344766], [76.2866004, 11.9330311], [76.2928605, 11.933238], [76.2934816, 11.9360233], [76.2921309, 11.9391162], [76.2896204, 11.9525307], [76.2866592, 11.9547349], [76.2839555, 11.9594791], [76.2830114, 11.9635935], [76.2846967, 11.9736138], [76.2845423, 11.9822267], [76.2865503, 11.9849465], [76.2893307, 11.9861553], [76.2924201, 11.985702], [76.2959728, 11.9828311], [76.2998345, 11.9740671], [76.3043141, 11.9544226], [76.3060132, 11.9507957], [76.3084847, 11.9489823], [76.311574, 11.9488312], [76.3145089, 11.949889], [76.3196063, 11.9583516], [76.3208421, 11.9610716], [76.3213055, 11.978298], [76.3225412, 11.9814712], [76.3251672, 11.9832844], [76.3322727, 11.984191], [76.3421607, 11.9774623], [76.3526961, 11.9734586]]]}}, {"type": "Feature", "properties": {"id": "valapattanam", "name": "Valapattanam", "featured": false, "gauge_town": "Valapattanam", "gauge_coordinates": [75.55, 11.93], "outlet": "azhikkal", "length_km": 61.2, "source": "OpenStreetMap"}, "geometry": {"type": "LineString", "coordinates": [[75.6797528, 11.9879007], [75.6800269, 11.9920192], [75.6757651, 11.99314], [75.6690562, 11.9929507], [75.666562, 11.9919002], [75.6623011, 11.9876306], [75.6573941, 11.9885895], [75.6542948, 11.9864337], [75.6494413, 11.986388], [75.6502071, 11.9816276], [75.6482859, 11.9806461], [75.6396242, 11.9893358], [75.6382162, 11.9894864], [75.6358182, 11.9867964], [75.6337282, 11.9858926], [75.6299442, 11.9852685], [75.6284262, 11.9855698], [75.6221342, 11.9915954], [75.6203522, 11.9916384], [75.6183282, 11.9894004], [75.6221782, 11.9849026], [75.6217382, 11.9825138], [75.6197362, 11.9805555], [75.6106299, 11.9802603], [75.6048642, 11.9748524], [75.6003542, 11.9738624], [75.5982862, 11.9749815], [75.5980442, 11.9801896], [75.5956022, 11.9824278], [75.5903442, 11.9807276], [75.5805763, 11.9829227], [75.5786183, 11.9814593], [75.5780683, 11.9779514], [75.5753843, 11.9765956], [75.5729863, 11.9774349], [75.5677063, 11.9834392], [75.5638783, 11.9838912], [75.5544843, 11.9768108], [75.5527463, 11.9710431], [75.5488743, 11.9674275], [75.5468943, 11.9684821], [75.5425383, 11.9752398], [75.5473563, 11.9788768], [75.5484611, 11.9812794], [75.546833, 11.9895678], [75.5475126, 11.9935878], [75.5465085, 11.9945062], [75.5434175, 11.9949151], [75.5392605, 11.9940007], [75.5371663, 11.9905674], [75.5311525, 11.9850697], [75.5235691, 11.9899073], [75.5182935, 11.9900946], [75.5141795, 11.9926985], [75.5108486, 11.9924861], [75.504778, 11.9897422], [75.501595, 11.9922732], [75.5019299, 12.000261], [75.5012116, 12.00192], [75.4993237, 12.0029179], [75.4950824, 12.0026504], [75.4871765, 11.9980782], [75.4816213, 11.9981391], [75.4742992, 12.001007], [75.4634097, 12.0035025], [75.4604102, 12.0052719], [75.4579339, 12.0105627], [75.4556938, 12.0126625], [75.4512136, 12.0142145], [75.4444932, 12.0206049], [75.4423776, 12.0207875], [75.4379285, 12.0179575], [75.434776, 12.0171262], [75.4241158, 12.0193052], [75.4193768, 12.0192204], [75.4115138, 12.0149752], [75.4047517, 12.004978], [75.4032075, 11.9976533], [75.4041482, 11.989141], [75.4029723, 11.9781742], [75.3979966, 11.9734471], [75.3896434, 11.9704477], [75.3863603, 11.9680337], [75.3790433, 11.96499], [75.3743566, 11.9576967], [75.3688367, 11.9401804], [75.3637731, 11.9317768], [75.3577471, 11.9300904], [75.3370489, 11.9356598], [75.3107014, 11.9475477], [75.3074813, 11.9482272], [75.304642, 11.9481621], [75.2956681, 11.9437015]]}}, {"type": "Feature", "properties": {"id": "meenachil", "name": "Meenachil", "featured": false, "gauge_town": "Reference point, 13 km above mouth", "gauge_coordinates": [76.5847, 9.6504], "outlet": "kochi", "length_km": 113.1, "source": "OpenStreetMap"}, "geometry": {"type": "MultiLineString", "coordinates": [[[76.4909269, 9.6160605], [76.4852693, 9.615741], [76.4858522, 9.6187481], [76.4841488, 9.6194897], [76.4812106, 9.6174423], [76.4794721, 9.6174897], [76.4776907, 9.6148073], [76.4729838, 9.612315], [76.4695731, 9.612869], [76.468161, 9.6114618], [76.4672361, 9.6119395], [76.4648889, 9.6105192], [76.4595468, 9.6131954], [76.4521122, 9.61469], [76.4503573, 9.6170567], [76.4480263, 9.616353], [76.441192, 9.6177704], [76.4399904, 9.6199786], [76.441825, 9.6216287], [76.4400011, 9.6261428], [76.4379197, 9.6256007], [76.429224, 9.6286841], [76.4279741, 9.6304427], [76.422886, 9.6331003], [76.4178425, 9.6319705], [76.4174545, 9.6371065], [76.4203741, 9.6521476], [76.4197763, 9.657021], [76.4081818, 9.6647477], [76.3990389, 9.6676373]], [[76.5345387, 9.6047722], [76.5337001, 9.6059829], [76.5349658, 9.6075867], [76.5346673, 9.6127483], [76.53792, 9.6151825], [76.5359246, 9.6189064], [76.5353646, 9.62256], [76.5326464, 9.6218373], [76.5329264, 9.6243467], [76.5294446, 9.6261132], [76.5303195, 9.6275615], [76.5158999, 9.6242189], [76.5134752, 9.6260171], [76.5069593, 9.6241937], [76.4999998, 9.6242612], [76.4969743, 9.6233621], [76.4927257, 9.624917], [76.490891, 9.6267893], [76.4879191, 9.6254141], [76.4851467, 9.6298403], [76.4839679, 9.6289962], [76.4799392, 9.6299323], [76.47678, 9.6324166], [76.4647127, 9.633432], [76.454928, 9.6320464], [76.4489306, 9.6334638], [76.4470315, 9.6351562], [76.4394084, 9.6359509], [76.4183968, 9.6418448]], [[76.7765336, 9.6875836], [76.7744886, 9.6890324], [76.7729931, 9.6928503], [76.7682736, 9.6920666], [76.7666233, 9.6945507], [76.7605906, 9.6981804], [76.7528748, 9.6993081], [76.7486867, 9.6965775], [76.744506, 9.696811], [76.743264, 9.6983378], [76.7429174, 9.7030206], [76.7409568, 9.7035422], [76.7309253, 9.700285], [76.7310803, 9.6955062], [76.727417, 9.6950818], [76.7202609, 9.6923956], [76.7196467, 9.6938301], [76.721389, 9.6993188], [76.7169457, 9.7009512], [76.7167418, 9.704494], [76.7155874, 9.7058298], [76.7104655, 9.7046103], [76.705525, 9.7093879], [76.7008957, 9.7082543], [76.6978951, 9.7090048], [76.6942524, 9.7071604], [76.6907276, 9.7091304], [76.6862245, 9.7091662], [76.6834361, 9.7120142], [76.6783579, 9.7073324], [76.6721917, 9.7073929], [76.6699588, 9.7046353], [76.6681181, 9.6973274], [76.6635677, 9.6969898], [76.6604454, 9.6927114], [76.6590267, 9.692409], [76.6539092, 9.6978758], [76.6515943, 9.698165], [76.6480865, 9.6967428], [76.6399452, 9.6874327], [76.6334142, 9.6872941], [76.6309534, 9.6827149], [76.623637, 9.6821665], [76.6206719, 9.6796215], [76.616876, 9.6840563], [76.61478, 9.6844846], [76.612914, 9.6775301], [76.6027406, 9.67496], [76.6022677, 9.6700086], [76.6009896, 9.6676651], [76.5958774, 9.666254], [76.5936791, 9.6626506], [76.5915575, 9.6613655], [76.5935257, 9.6547129], [76.593858, 9.6494714], [76.5913783, 9.6502544], [76.5890244, 9.6478766], [76.5869054, 9.6500999], [76.5815711, 9.6505709], [76.5777393, 9.6382044], [76.5740579, 9.6371964], [76.5722287, 9.6339068], [76.5690634, 9.6353176], [76.5676898, 9.6348186], [76.5667499, 9.631326], [76.5644127, 9.628782], [76.5615374, 9.6272641], [76.5575033, 9.626915], [76.5571171, 9.6246778], [76.5612588, 9.6205378], [76.5612561, 9.6177596], [76.5575907, 9.6164298], [76.5554947, 9.6112381], [76.5521334, 9.6095631], [76.5467227, 9.6101694], [76.5444255, 9.6094229], [76.5396259, 9.6038745], [76.5349356, 9.6050161], [76.5345387, 9.6047722], [76.5335027, 9.601951], [76.5332052, 9.5983341], [76.5313392, 9.5970992], [76.5276848, 9.5980793], [76.5248602, 9.6026663], [76.5215756, 9.6031703], [76.5179331, 9.6012801], [76.5108651, 9.6052139]], [[76.7696899, 9.7469267], [76.7686499, 9.7448775], [76.7691314, 9.7428981], [76.7757806, 9.7380123], [76.7735214, 9.7350068], [76.774436, 9.7343673], [76.7738881, 9.7315917], [76.7811939, 9.7128537], [76.7851559, 9.7112939], [76.7882491, 9.7044823], [76.7875968, 9.7029481], [76.7853832, 9.7018115], [76.785995, 9.6987118], [76.7821761, 9.6900958], [76.7765336, 9.6875836]], [[76.8106339, 9.6712368], [76.8093277, 9.6709132], [76.8074678, 9.6732796], [76.8042164, 9.6710454], [76.8015037, 9.672287], [76.7996245, 9.6720549], [76.7993214, 9.6693494], [76.7966279, 9.6683796], [76.7944295, 9.6707111], [76.7923111, 9.670149], [76.7860322, 9.6825913], [76.7838722, 9.6843685], [76.7816084, 9.684432], [76.7801492, 9.6862828], [76.7777353, 9.686251], [76.7765336, 9.6875836]], [[76.8979436, 9.6831467], [76.8977737, 9.6844795], [76.8992007, 9.6848708], [76.9010222, 9.687915], [76.9006919, 9.6888844], [76.9016059, 9.6890903], [76.9001018, 9.6920201], [76.8934821, 9.6921999], [76.8893487, 9.6971922], [76.8830913, 9.6967422], [76.880865, 9.7017814], [76.8781452, 9.7020246], [76.8770992, 9.7008428], [76.8766593, 9.7026723], [76.8742185, 9.7015646], [76.8705439, 9.7026221], [76.8677275, 9.7021171], [76.8666439, 9.7038753], [76.8657052, 9.7030742], [76.8641441, 9.7041159], [76.8604319, 9.7037537], [76.8593751, 9.7044305], [76.8584364, 9.7086712], [76.8562799, 9.7084385], [76.8539517, 9.709956], [76.8488448, 9.7100935], [76.8487214, 9.7123354], [76.8458193, 9.717689], [76.8394302, 9.7217265], [76.8340873, 9.7234607], [76.8309115, 9.7214938], [76.8303913, 9.7195184], [76.8281006, 9.7198653], [76.8267488, 9.7165442], [76.8276581, 9.7154497], [76.8272585, 9.7114391], [76.8252254, 9.7107227], [76.8261722, 9.7070399], [76.8274615, 9.7057367], [76.8265878, 9.7034527], [76.8277358, 9.7028923], [76.825354, 9.6983152], [76.8221048, 9.7014729], [76.8211446, 9.7004782], [76.8167239, 9.701775], [76.8139997, 9.7002967], [76.8099314, 9.7006036], [76.801632, 9.7053792], [76.7981427, 9.7090611], [76.7961167, 9.7087196], [76.7901702, 9.7116645], [76.7853459, 9.7109982]], [[76.888503, 9.666208], [76.8871834, 9.6662715], [76.8853382, 9.6647395], [76.8801319, 9.6663346], [76.8786647, 9.6654941], [76.8772039, 9.6659883], [76.8739299, 9.6637258]]]}}, {"type": "Feature", "properties": {"id": "manimala", "name": "Manimala", "featured": false, "gauge_town": "Reference point, 11 km above mouth", "gauge_coordinates": [76.4087, 9.4551], "outlet": "thottappally", "length_km": 43.6, "source": "OpenStreetMap"}, "geometry": {"type": "MultiLineString", "coordinates": [[[76.5508036, 9.3505712], [76.5463006, 9.3556134], [76.5463526, 9.3570756], [76.5491865, 9.3586917], [76.5495245, 9.3609235], [76.5466124, 9.3619245], [76.5403759, 9.3608302], [76.5309301, 9.3644458], [76.5276993, 9.3691147], [76.5213632, 9.3687915], [76.5145913, 9.3703471], [76.5149029, 9.3731388], [76.5127396, 9.3736476], [76.5100014, 9.3761844], [76.5119986, 9.3830822], [76.5115581, 9.3859401], [76.5140616, 9.3899281], [76.5107015, 9.3917381], [76.5118182, 9.400324], [76.505723, 9.4041097], [76.5066861, 9.4071951], [76.5055085, 9.4102487], [76.5052807, 9.4149291], [76.498813, 9.4127423], [76.4960304, 9.4170462], [76.4931302, 9.4194603], [76.4881475, 9.4227291], [76.4844572, 9.4224684], [76.4828625, 9.4234133], [76.4795329, 9.4272882], [76.4714925, 9.4324205], [76.465913, 9.434695], [76.4501877, 9.4485639], [76.4477759, 9.449279], [76.4434891, 9.4498497], [76.439663, 9.448143], [76.4369846, 9.4389698], [76.4351215, 9.4356549], [76.433591, 9.4354416], [76.4280514, 9.4386908], [76.4217465, 9.4386252], [76.4158242, 9.4413493], [76.4144435, 9.4455667], [76.4091673, 9.4529969], [76.4085442, 9.4555176], [76.4086193, 9.4573008], [76.4110815, 9.4613382], [76.407305, 9.4679948], [76.4071226, 9.4815086], [76.4109528, 9.4946198], [76.4075974, 9.4962441], [76.4074176, 9.5079315], [76.4020586, 9.5127249], [76.3908148, 9.5165659], [76.380584, 9.5178624], [76.3764381, 9.523433], [76.3753223, 9.5269459], [76.3753532, 9.5318779]], [[76.5544894, 9.5604414], [76.5561722, 9.5579699], [76.5584816, 9.5575815], [76.5613363, 9.5523842], [76.5626777, 9.5522166], [76.5640043, 9.5536533], [76.565833, 9.5530212], [76.567945, 9.5502164], [76.5690925, 9.5438233], [76.5712752, 9.5450617], [76.5736891, 9.544587], [76.574095, 9.5434206], [76.5766706, 9.5427261], [76.5767629, 9.5411143], [76.579016, 9.5379401], [76.5836806, 9.5370909], [76.584895, 9.5379516], [76.5904128, 9.5377895], [76.5909488, 9.538631], [76.5954669, 9.5372609]]]}}, {"type": "Feature", "properties": {"id": "muvattupuzha", "name": "Muvattupuzha", "featured": false, "gauge_town": "Reference point, 16 km above mouth", "gauge_coordinates": [76.4721, 9.843], "outlet": "kochi", "length_km": 59.7, "source": "OpenStreetMap"}, "geometry": {"type": "MultiLineString", "coordinates": [[[76.3901156, 9.8232286], [76.3831118, 9.8281065], [76.3760505, 9.8304452]], [[76.5838012, 9.9858959], [76.579884, 9.9863733], [76.5777965, 9.9882079], [76.5760702, 9.9880695], [76.5714985, 9.9836792], [76.5671687, 9.9822639], [76.5628088, 9.9724344], [76.5626357, 9.965792], [76.5587102, 9.9578397], [76.5571868, 9.9569416], [76.5522247, 9.9574752], [76.5477723, 9.9546485], [76.5445425, 9.9558745], [76.5429819, 9.9583311], [76.5480942, 9.9656342], [76.5473428, 9.9703463], [76.5462326, 9.9709801], [76.5392074, 9.9652121], [76.5299518, 9.9623259], [76.526362, 9.965179], [76.5202664, 9.9670429], [76.5170986, 9.970594], [76.5122653, 9.9727973], [76.5059961, 9.9721305], [76.4983979, 9.969242], [76.4952736, 9.9669088], [76.4946041, 9.964229], [76.4981747, 9.9614562], [76.5045605, 9.9596641], [76.5015736, 9.955919], [76.4999085, 9.9485472], [76.497793, 9.9478545], [76.4916958, 9.9531168], [76.4876957, 9.9534243], [76.4852229, 9.9514216], [76.4814206, 9.9458842], [76.4727193, 9.9392611], [76.4732495, 9.9334987], [76.478468, 9.9281386], [76.480073, 9.9236408], [76.4787855, 9.9180268], [76.4732752, 9.9165642], [76.4726315, 9.9149239], [76.4740048, 9.9127256], [76.4814143, 9.9067369], [76.4827841, 9.9027018], [76.4820044, 9.9016614], [76.4761855, 9.9000467], [76.4704896, 9.89274], [76.4691479, 9.8890229], [76.4700494, 9.8865066], [76.4714837, 9.8854166], [76.4752179, 9.8859684], [76.4813303, 9.8843286], [76.4861559, 9.8804841], [76.4861863, 9.8778796], [76.4801434, 9.8692025], [76.4787009, 9.8634751], [76.4813563, 9.8612465], [76.4855197, 9.8605252], [76.485618, 9.8582428], [76.4881314, 9.8544638], [76.4880877, 9.8527735], [76.4838724, 9.8449679], [76.4823425, 9.8451832], [76.4814137, 9.8472288], [76.4804985, 9.8472827], [76.4767149, 9.8435548], [76.4733547, 9.8424646], [76.4610612, 9.8468655], [76.4568815, 9.844268], [76.4519641, 9.8318189], [76.4467462, 9.8259778], [76.4450798, 9.8225188], [76.4450115, 9.8182926], [76.453451, 9.8102922], [76.4545252, 9.8073625], [76.4510341, 9.8031851], [76.4464304, 9.8003404], [76.4460947, 9.7983178], [76.4442148, 9.7984407], [76.4384122, 9.7952556], [76.4339908, 9.7941215], [76.4276607, 9.7949438], [76.4242777, 9.7985833], [76.421765, 9.7963142], [76.418299, 9.7973241], [76.4156576, 9.7997832], [76.4131191, 9.799865], [76.4096521, 9.7980718], [76.4063428, 9.7995249], [76.4018729, 9.798653], [76.4002291, 9.801101], [76.3996101, 9.8112429], [76.3923049, 9.8212839]], [[76.6259613, 10.0532826], [76.6247946, 10.0520381], [76.6255295, 10.0493812], [76.6212165, 10.0452717], [76.6200793, 10.0405811], [76.614629, 10.0379822], [76.6155195, 10.0361862], [76.6152406, 10.0323406], [76.6126141, 10.0253335]]]}}, {"type": "Feature", "properties": {"id": "kallada", "name": "Kallada", "featured": false, "gauge_town": "Reference point, 25 km above mouth", "gauge_coordinates": [76.7156, 9.0633], "outlet": "neendakara", "length_km": 91.2, "source": "OpenStreetMap"}, "geometry": {"type": "MultiLineString", "coordinates": [[[77.0700957, 8.954341], [77.0603727, 8.9593045], [77.0557864, 8.9647813], [77.0527445, 8.9650566], [77.0493383, 8.9669522], [77.0447884, 8.9702217], [77.0436778, 8.9724175], [77.0392635, 8.9743405], [77.0385425, 8.976367], [77.037144, 8.9762105], [77.0323926, 8.9791291], [77.0275899, 8.9804788], [77.021535, 8.9869115], [77.0171622, 8.9846014], [77.0160006, 8.9775709], [77.0149737, 8.9770908], [77.0136929, 8.9788125], [77.0147246, 8.9806907], [77.0142493, 8.9842906], [77.0102618, 8.9864646], [77.0088261, 8.985607], [77.0112159, 8.9844024], [77.0100279, 8.981637], [77.0076693, 8.9827203], [77.0054296, 8.9820618], [77.0002373, 8.9849945], [76.9992997, 8.9832044], [76.9959425, 8.9831767], [76.9922231, 8.9870408], [76.9722173, 8.9976757], [76.9681177, 8.9973357], [76.9604187, 8.9986764], [76.9587447, 8.9969729], [76.960751, 8.9934608], [76.9601678, 8.9921862], [76.9289593, 9.0044308], [76.9284774, 9.0056086], [76.9311765, 9.0088143], [76.9269383, 9.0195155], [76.9270966, 9.0231615], [76.9249953, 9.0261027], [76.9246197, 9.030154], [76.922101, 9.03377], [76.9224386, 9.0365559], [76.9209481, 9.0403049], [76.9190392, 9.0401544], [76.9167558, 9.0345644], [76.9151828, 9.0342724], [76.908406, 9.0372906], [76.9016267, 9.0380249], [76.9022616, 9.041006], [76.8984007, 9.0443548], [76.8939593, 9.0443112], [76.8901955, 9.0482186], [76.8837372, 9.0490253], [76.8810924, 9.0511839], [76.8773932, 9.0494012], [76.876505, 9.0511241], [76.8699166, 9.0565535], [76.8702428, 9.0672564], [76.8673689, 9.0743373], [76.8696027, 9.0772257], [76.8658539, 9.0829324], [76.8636401, 9.0826619], [76.8619087, 9.0785401], [76.8585346, 9.0793703], [76.853006, 9.0780856], [76.8533464, 9.0751468], [76.8511626, 9.0733418], [76.8456202, 9.0745555], [76.8374863, 9.0724498], [76.8316629, 9.076413], [76.8295751, 9.0790945], [76.8235402, 9.0797849], [76.8198768, 9.0775081], [76.8171764, 9.0778765], [76.8162069, 9.078707], [76.8163657, 9.0810835], [76.8131661, 9.0825006], [76.8045204, 9.089957], [76.8018193, 9.0903612], [76.7964606, 9.0897875], [76.7908227, 9.087014], [76.7879673, 9.090147], [76.7808595, 9.0889897], [76.779914, 9.0817524], [76.7717549, 9.0794553], [76.7708539, 9.07795], [76.7716995, 9.0740108], [76.765854, 9.0744174], [76.7597778, 9.0721085], [76.7586562, 9.0720599], [76.7571831, 9.0737654], [76.7572507, 9.0854847], [76.7556366, 9.0882121], [76.7530362, 9.0877349], [76.750561, 9.0834694], [76.7455088, 9.0795156], [76.7374509, 9.0856672], [76.73608, 9.0852045], [76.7345834, 9.0813766], [76.733246, 9.0807958], [76.7312449, 9.0811164], [76.7276723, 9.0836193], [76.7231728, 9.0810838], [76.7130261, 9.084686], [76.7123054, 9.082551], [76.7154655, 9.0798139], [76.7182928, 9.0741204], [76.7241694, 9.0679888], [76.7243357, 9.0649777], [76.7166336, 9.0651247], [76.7124424, 9.057895], [76.7098968, 9.0595285], [76.7062626, 9.0585331], [76.7034297, 9.063824], [76.7020492, 9.0643755], [76.6866558, 9.06253], [76.6847824, 9.0586617], [76.688955, 9.0574283], [76.6896646, 9.0524389], [76.6872235, 9.0509252], [76.6848108, 9.044506], [76.6774307, 9.0421232], [76.6773456, 9.0273501], [76.6738259, 9.0288918], [76.6668248, 9.0270323], [76.6642034, 9.0254437], [76.6633272, 9.0254958], [76.6610473, 9.0291832], [76.6569664, 9.0270759], [76.6487038, 9.0283356], [76.6475156, 9.0277793], [76.6459157, 9.0245328], [76.6464843, 9.0163844], [76.6435969, 9.0159275], [76.6394999, 9.0187792], [76.6372897, 9.0161195], [76.6327178, 9.0154931], [76.6339971, 9.0097143], [76.6306472, 9.0057656], [76.6169331, 8.9999161], [76.61065, 9.0013798], [76.6028273, 8.9987452], [76.594031, 9.0022911], [76.5880229, 9.0000446], [76.5852119, 8.9965265], [76.5871055, 8.9742751]], [[76.631303, 9.0062012], [76.6332703, 9.0039897], [76.6329572, 9.0020005], [76.6314693, 9.0001241], [76.6284008, 8.999022], [76.6282936, 8.9974325], [76.6252466, 8.994974], [76.6238733, 8.9916254], [76.6266732, 8.984146]], [[76.6297666, 8.9994538], [76.6297347, 8.9984212], [76.6285423, 8.998309]]]}}, {"type": "Feature", "properties": {"id": "karamana", "name": "Karamana", "featured": false, "gauge_town": "Reference point, 18 km above mouth", "gauge_coordinates": [77.0031, 8.4902], "outlet": "thiruvananthapuram", "length_km": 60.2, "source": "OpenStreetMap"}, "geometry": {"type": "LineString", "coordinates": [[77.1383879, 8.623075], [77.1363213, 8.6212539], [77.1358797, 8.6150229], [77.1329166, 8.6144954], [77.1310319, 8.6156275], [77.1297325, 8.6142427], [77.1275762, 8.6163744], [77.1238559, 8.6163751], [77.1225112, 8.617562], [77.1194816, 8.6125775], [77.1181111, 8.6130509], [77.1178722, 8.6150424], [77.1151262, 8.6150368], [77.1131154, 8.6129725], [77.1120704, 8.6132217], [77.111308, 8.6160193], [77.1077935, 8.6203799], [77.1048958, 8.6190257], [77.1046599, 8.6180909], [77.108059, 8.6158734], [77.1069132, 8.6138808], [77.107589, 8.6113937], [77.1052597, 8.6084988], [77.1052285, 8.6068455], [77.1034131, 8.6055264], [77.1022048, 8.6019557], [77.0998814, 8.6016238], [77.0992534, 8.5942549], [77.0963969, 8.5941644], [77.0961743, 8.589272], [77.0928424, 8.5851648], [77.0952617, 8.5803243], [77.0930854, 8.577495], [77.0876809, 8.5766941], [77.0864567, 8.5786961], [77.0846917, 8.5794028], [77.082299, 8.5779765], [77.078737, 8.5820821], [77.0745206, 8.5819866], [77.0732009, 8.5837583], [77.0716345, 8.5842038], [77.0699394, 8.5882457], [77.0684373, 8.5848934], [77.0656156, 8.5876728], [77.0562816, 8.5894869], [77.0533311, 8.5922557], [77.0526874, 8.5907811], [77.054522, 8.5886594], [77.0545113, 8.5871849], [77.0528912, 8.5868242], [77.0520973, 8.5887549], [77.0496941, 8.5888504], [77.0505094, 8.5852541], [77.0460248, 8.5851798], [77.0457888, 8.5842357], [77.048192, 8.5831642], [77.049061, 8.5806605], [77.0478701, 8.5792283], [77.0442009, 8.5809364], [77.0446193, 8.5758441], [77.0437074, 8.5759078], [77.0427647, 8.578567], [77.0414901, 8.5783259], [77.0403253, 8.5765619], [77.0394782, 8.5768024], [77.0376936, 8.580258], [77.0347343, 8.5736114], [77.0335127, 8.5741978], [77.0336035, 8.5764142], [77.0325928, 8.5768759], [77.0297524, 8.5749496], [77.0253611, 8.575685], [77.021128, 8.5739862], [77.020988, 8.5699999], [77.0225759, 8.5667323], [77.0206018, 8.5680478], [77.0172115, 8.5684721], [77.0205814, 8.5661952], [77.0208013, 8.5645349], [77.0062195, 8.5676866], [77.0069061, 8.5654544], [77.0037218, 8.564716], [77.0086657, 8.5588088], [77.008494, 8.5580195], [77.0061766, 8.5583165], [77.00555, 8.5561352], [77.0063997, 8.5531391], [77.0068375, 8.5522988], [77.0120131, 8.5513652], [77.0135151, 8.545984], [77.0130774, 8.5445665], [77.0113779, 8.545305], [77.0093781, 8.541129], [77.0066143, 8.5386844], [77.0126482, 8.531894], [77.0145622, 8.5280065], [77.012103, 8.5251872], [77.0149698, 8.5206629], [77.0135106, 8.5200687], [77.0109695, 8.5215028], [77.0072798, 8.5188845], [77.0070469, 8.5153049], [77.0031645, 8.5089018], [77.0066613, 8.5050695], [77.0039834, 8.5031171], [77.0043439, 8.4942039], [77.0028419, 8.4892972], [77.0050992, 8.4873448], [77.0052643, 8.4763994], [77.0034817, 8.4717421], [77.0007919, 8.4762126], [76.9963788, 8.4759098], [76.9925851, 8.4800016], [76.9944047, 8.4835077], [76.9873827, 8.4850747], [76.9862911, 8.4843225], [76.9882303, 8.4816445], [76.9841112, 8.4786549], [76.9831693, 8.4724108], [76.9808651, 8.473514], [76.9767322, 8.478898], [76.9692144, 8.4788211], [76.9680571, 8.466613], [76.9714143, 8.466203], [76.9710678, 8.463668], [76.9725007, 8.4592534], [76.9738139, 8.459852], [76.9743823, 8.4585876], [76.96772, 8.4573347], [76.9685525, 8.4540067], [76.9676942, 8.452971], [76.9655186, 8.455752], [76.9627847, 8.454618], [76.9623555, 8.4535367], [76.9590911, 8.4550077], [76.9583872, 8.4494001], [76.9564904, 8.4468361], [76.9532448, 8.4449586], [76.953934, 8.4399634], [76.9561195, 8.4348164], [76.9580782, 8.4334812], [76.9570311, 8.4312313], [76.9585316, 8.4261275], [76.9577707, 8.4248473]]}}, {"type": "Feature", "properties": {"id": "neyyar", "name": "Neyyar", "featured": false, "gauge_town": "Reference point, 16 km above mouth", "gauge_coordinates": [77.0919, 8.4145], "outlet": "thiruvananthapuram", "length_km": 54.4, "source": "OpenStreetMap"}, "geometry": {"type": "LineString", "coordinates": [[77.230829, 8.5353519], [77.2291675, 8.5360553], [77.2279759, 8.5344114], [77.2272757, 8.5374], [77.2266253, 8.5365984], [77.2259888, 8.5374938], [77.2194794, 8.5389014], [77.2191222, 8.5399922], [77.2134488, 8.5404541], [77.2091535, 8.5426968], [77.2065826, 8.5411982], [77.2035205, 8.5430999], [77.2002389, 8.5425728], [77.1950239, 8.5436683], [77.191063, 8.5459316], [77.1890251, 8.5444227], [77.1873007, 8.5457973], [77.1869976, 8.5479633], [77.1795233, 8.5503652], [77.1780847, 8.5486895], [77.1780665, 8.5464819], [77.1733041, 8.5431211], [77.1733041, 8.539621], [77.1721835, 8.5383758], [77.1698494, 8.5378922], [77.161033, 8.5435659], [77.1549439, 8.5443132], [77.1512961, 8.5405361], [77.1484422, 8.5406847], [77.1483564, 8.5380322], [77.1457083, 8.5359124], [77.1463903, 8.5331883], [77.1445583, 8.5306024], [77.1418093, 8.5308833], [77.1393925, 8.5328024], [77.1382125, 8.53198], [77.1354954, 8.533691], [77.130077, 8.529395], [77.1293432, 8.5293055], [77.1289612, 8.5311348], [77.1278252, 8.5306079], [77.1261162, 8.5265219], [77.1268099, 8.5251897], [77.1251713, 8.5249113], [77.1243647, 8.522675], [77.1251412, 8.5210693], [77.122888, 8.5175402], [77.1254397, 8.5162819], [77.1262458, 8.5142923], [77.1244659, 8.5141659], [77.1240536, 8.5110726], [77.1206131, 8.5124857], [77.1212742, 8.5107352], [77.1194583, 8.5098087], [77.1197587, 8.5074054], [77.1182513, 8.5071666], [77.11779, 8.505888], [77.1196032, 8.5014633], [77.1184015, 8.500694], [77.1198767, 8.4973728], [77.1182352, 8.4948579], [77.1209979, 8.4952028], [77.1212876, 8.4931018], [77.1233314, 8.4933989], [77.1241017, 8.492359], [77.1240503, 8.4907408], [77.1206385, 8.4917117], [77.1188468, 8.491075], [77.1211803, 8.4897062], [77.1212017, 8.4872497], [77.1237713, 8.4842944], [77.1248174, 8.4803735], [77.1239215, 8.4775667], [77.1254826, 8.4753807], [77.1247798, 8.47346], [77.1234602, 8.4744522], [77.1204829, 8.4735714], [77.1155798, 8.4747069], [77.1133171, 8.474166], [77.1145069, 8.471083], [77.1120876, 8.4714331], [77.1094859, 8.4694647], [77.1039876, 8.4699968], [77.1015733, 8.4685329], [77.0990843, 8.4710458], [77.0951622, 8.4683339], [77.0917543, 8.4689404], [77.0893682, 8.46765], [77.0936608, 8.4599457], [77.0963493, 8.458181], [77.0974792, 8.4556372], [77.1019682, 8.4550599], [77.1041159, 8.4520894], [77.1012987, 8.448667], [77.1009125, 8.4449314], [77.0987495, 8.44016], [77.0991418, 8.4386005], [77.1009442, 8.438431], [77.1019213, 8.4368081], [77.0996078, 8.4370187], [77.0987852, 8.4314314], [77.0957454, 8.4307783], [77.0920032, 8.4260492], [77.0928787, 8.4238162], [77.0919002, 8.4147313], [77.0924152, 8.4123879], [77.0915196, 8.4102125], [77.0924293, 8.4069519], [77.0888982, 8.4029684], [77.0940754, 8.3981768], [77.0950939, 8.393699], [77.0979812, 8.3919705], [77.0984163, 8.3907001], [77.0925259, 8.3880037], [77.0921485, 8.3868335], [77.0941622, 8.3846673], [77.0894458, 8.3835683], [77.0871936, 8.3804906], [77.0862608, 8.3759706], [77.0881453, 8.3694494], [77.0872979, 8.3683943], [77.0878031, 8.3663343], [77.0866118, 8.3649172], [77.0848599, 8.3674517], [77.0828977, 8.3608544], [77.0855767, 8.3587423], [77.0871244, 8.3543698], [77.0891036, 8.3532982], [77.0874229, 8.3513568], [77.0895276, 8.3484237], [77.0875569, 8.3466659], [77.0896135, 8.3429521], [77.0895129, 8.3410788], [77.0885539, 8.3388269], [77.085923, 8.337571], [77.0840405, 8.3333066], [77.0819728, 8.3314888], [77.080897, 8.3264589], [77.0757866, 8.3227973], [77.0752984, 8.3209023], [77.0760809, 8.3183532], [77.0735232, 8.3162331], [77.0784907, 8.3104474], [77.0801917, 8.3067147], [77.0796812, 8.3053497]]}}, {"type": "Feature", "properties": {"id": "kadalundi", "name": "Kadalundi", "featured": false, "gauge_town": "Reference point, 15 km above mouth", "gauge_coordinates": [75.8854, 11.0779], "outlet": "beypore", "length_km": 70.7, "source": "OpenStreetMap"}, "geometry": {"type": "MultiLineString", "coordinates": [[[76.007704, 11.0450108], [76.00359, 11.0423004], [76.0014889, 11.0423435], [75.9998407, 11.0437707], [75.9987799, 11.0430772], [76.0057728, 11.0357328], [76.0075299, 11.0291454], [76.0038386, 11.0280411], [76.00359, 11.0249534], [75.9991037, 11.0262017], [75.9953038, 11.0244849], [75.9948634, 11.0207163], [75.989005, 11.0244939], [75.99063, 11.0305013], [75.9808605, 11.0298481], [75.9749685, 11.03065], [75.9743663, 11.0302614], [75.9753497, 11.025458], [75.9734691, 11.0255744], [75.9681092, 11.0281892], [75.9618547, 11.0340872], [75.9584861, 11.0309975], [75.9561312, 11.0262709], [75.9534303, 11.0255067], [75.9471425, 11.0319836], [75.9434822, 11.0320164], [75.9425787, 11.0348843], [75.9404833, 11.0368749], [75.9429469, 11.0415781], [75.9430908, 11.0460833], [75.9411493, 11.0455316], [75.9414829, 11.0426861], [75.9288597, 11.0458879], [75.9217705, 11.053922], [75.9212584, 11.0444805], [75.9181555, 11.0447926], [75.9066824, 11.0523071], [75.898161, 11.0499701], [75.8896956, 11.0512323], [75.8854419, 11.0496915], [75.8770762, 11.0390946], [75.8752252, 11.0384405], [75.8733488, 11.0403706], [75.8731208, 11.0426324], [75.8773627, 11.0468899], [75.877888, 11.0498431], [75.8809068, 11.0527301], [75.8800893, 11.0533208], [75.8780415, 11.0526712], [75.8788765, 11.0546347], [75.8759497, 11.0569813], [75.876201, 11.0592454], [75.8779307, 11.0606213], [75.8820782, 11.0605565], [75.8851773, 11.0648831], [75.88454, 11.0669916], [75.8765183, 11.0659953], [75.8740253, 11.0732261], [75.8796672, 11.0771742], [75.8809613, 11.0747432], [75.8865565, 11.0741626], [75.884203, 11.0820337], [75.8750287, 11.0902069], [75.8708285, 11.0985718], [75.8547888, 11.1044542], [75.8526659, 11.1072816], [75.8558931, 11.112116], [75.8629634, 11.1128932], [75.8651204, 11.117538], [75.8691583, 11.1221934], [75.8672114, 11.1269192], [75.8591324, 11.1303937], [75.8582743, 11.1366875], [75.8514795, 11.1425451], [75.8487014, 11.1433691], [75.8453903, 11.1426877], [75.8380897, 11.1352394], [75.8346831, 11.1335645], [75.8318487, 11.1306036], [75.8289733, 11.1300141], [75.8275264, 11.1282504], [75.8269174, 11.1249451], [75.8256304, 11.1242126]], [[76.1821951, 11.09136], [76.1820102, 11.0883486], [76.1793279, 11.0890776], [76.17588, 11.0876276], [76.1743323, 11.0888808], [76.1739995, 11.0936821], [76.1731245, 11.0943231], [76.1678374, 11.091348], [76.166568, 11.0942989], [76.1634993, 11.0960888], [76.162501, 11.092642], [76.1610468, 11.0918317], [76.1581259, 11.0912996], [76.1537139, 11.0927509], [76.1512614, 11.0902716], [76.1469849, 11.0888566], [76.1446926, 11.0861354], [76.147115, 11.0816983], [76.1461735, 11.0807075], [76.1413547, 11.0797762], [76.1397526, 11.0808043], [76.1389022, 11.0823403], [76.1395677, 11.0861258], [76.1379532, 11.0874319], [76.1371326, 11.0867253], [76.1370782, 11.0834408], [76.1316186, 11.0789901], [76.1285992, 11.082691], [76.1250375, 11.0832957], [76.1221961, 11.0813475], [76.1267452, 11.0744827], [76.1266808, 11.0723137], [76.1192993, 11.0626688], [76.1179475, 11.0620371], [76.1164884, 11.0632795], [76.1156945, 11.0668595], [76.1163811, 11.0702289], [76.1101369, 11.0659961], [76.1084418, 11.0674913], [76.1068968, 11.0744195], [76.1053519, 11.0745037], [76.1036391, 11.0734487], [76.1046867, 11.0694919], [76.0960821, 11.0689022], [76.0940437, 11.0664805], [76.0960392, 11.0614895], [76.1011891, 11.0554034], [76.0944334, 11.046111], [76.097442, 11.042186], [76.0965963, 11.0397964]]]}}, {"type": "Feature", "properties": {"id": "kuppam", "name": "Kuppam", "featured": false, "gauge_town": "Reference point, 19 km above mouth", "gauge_coordinates": [75.3202, 12.047], "outlet": "azhikkal", "length_km": 64.6, "source": "OpenStreetMap"}, "geometry": {"type": "LineString", "coordinates": [[75.4988789, 12.2256428], [75.4963703, 12.2249679], [75.4920859, 12.2261662], [75.489548, 12.2326017], [75.4873646, 12.232571], [75.4816779, 12.2296648], [75.4743089, 12.2334523], [75.4733224, 12.2329565], [75.4714455, 12.2281114], [75.4585782, 12.2253153], [75.4584796, 12.2208801], [75.456887, 12.2189104], [75.4538992, 12.2181804], [75.454167, 12.2136073], [75.4530292, 12.210998], [75.4466308, 12.2117694], [75.4379339, 12.2088047], [75.4380535, 12.2066911], [75.4363095, 12.2024832], [75.437605, 12.2008663], [75.4371665, 12.1992494], [75.434436, 12.1998144], [75.4308185, 12.198626], [75.4284068, 12.1960058], [75.4264037, 12.1965513], [75.425756, 12.1959376], [75.4265731, 12.1922556], [75.4232347, 12.1932297], [75.4179529, 12.1915251], [75.4171756, 12.1889243], [75.4198663, 12.1847843], [75.4175045, 12.1839076], [75.4150729, 12.1775369], [75.4216642, 12.1739773], [75.4190501, 12.1722825], [75.4184487, 12.1706846], [75.4229965, 12.1684249], [75.4247106, 12.1646353], [75.4278919, 12.1630347], [75.4272013, 12.1585433], [75.4332756, 12.1565456], [75.4328713, 12.1528558], [75.4340907, 12.1507977], [75.4320271, 12.1485155], [75.4287963, 12.150492], [75.4255551, 12.1488007], [75.4276603, 12.1444502], [75.426441, 12.1411796], [75.4228975, 12.1392437], [75.4166026, 12.1386935], [75.4115655, 12.1342659], [75.409164, 12.1262715], [75.402817, 12.1269847], [75.397283, 12.1221549], [75.3955425, 12.1190674], [75.3935206, 12.119312], [75.3921241, 12.1184153], [75.391603, 12.1130146], [75.3848703, 12.1139216], [75.3790966, 12.1097335], [75.3782628, 12.1079502], [75.3801075, 12.1057797], [75.3799199, 12.1034971], [75.3741878, 12.1029977], [75.3700503, 12.1055249], [75.3674135, 12.1037824], [75.3662371, 12.0977492], [75.3625473, 12.0927264], [75.3563812, 12.0935802], [75.35022, 12.0918155], [75.346407, 12.0825501], [75.3459549, 12.0779001], [75.3385389, 12.0712591], [75.3383881, 12.0658116], [75.3402819, 12.0648362], [75.3498218, 12.065539], [75.353253, 12.0635258], [75.3547955, 12.0603408], [75.3505095, 12.0572701], [75.3444828, 12.049065], [75.3415229, 12.0478419], [75.3351633, 12.0477062], [75.3330603, 12.0412779], [75.3293917, 12.0373027], [75.3260775, 12.0383424], [75.3210333, 12.046578], [75.3192824, 12.0473934], [75.3140354, 12.0456084], [75.3117524, 12.042933], [75.3102569, 12.035366], [75.3078807, 12.0335517], [75.3034826, 12.0324712], [75.3007104, 12.0300249], [75.3001684, 12.0289444], [75.3022945, 12.025968], [75.3025958, 12.0217252], [75.2952289, 12.0115341], [75.2911847, 12.0108], [75.2876651, 12.0125989], [75.2854942, 12.0212587], [75.2806376, 12.0233993], [75.2716093, 12.0252126], [75.2682198, 12.0244306], [75.2668076, 12.0221383], [75.2643012, 12.0125913], [75.2645541, 12.0066504], [75.2665372, 12.0031824], [75.2748602, 11.9972456], [75.2808396, 11.990133], [75.2835137, 11.9865178], [75.2922574, 11.9693818], [75.3018827, 11.958086], [75.3039704, 11.9567507], [75.3066499, 11.9503046], [75.304642, 11.9481621]]}}, {"type": "Feature", "properties": {"id": "chandragiri", "name": "Chandragiri", "featured": false, "gauge_town": "Reference point, 15 km above mouth", "gauge_coordinates": [75.0752, 12.4862], "outlet": "kasaragod", "length_km": 92.2, "source": "OpenStreetMap"}, "geometry": {"type": "MultiLineString", "coordinates": [[[75.2729289, 12.5699757], [75.2615842, 12.5709717], [75.2590903, 12.5700535], [75.2534669, 12.5701017], [75.2517108, 12.5690568], [75.2492575, 12.5644364], [75.2482709, 12.5642438], [75.2368595, 12.5652068], [75.2339334, 12.5691751], [75.2276196, 12.5683781], [75.223792, 12.5701376], [75.2225363, 12.5698652], [75.2174853, 12.5677454], [75.2162521, 12.5660442], [75.2167432, 12.5636833], [75.2179757, 12.5631839], [75.2189988, 12.5610731], [75.2180454, 12.5577933], [75.2137201, 12.5543075], [75.2088147, 12.5548974], [75.2051522, 12.5497677], [75.203823, 12.5456591], [75.2026884, 12.5456109], [75.201784, 12.547232], [75.1976733, 12.5475209], [75.1925431, 12.5493506], [75.1908841, 12.5489417], [75.1886297, 12.5420798], [75.1870677, 12.5414539], [75.1854891, 12.5386771], [75.1862948, 12.5359003], [75.1884808, 12.5335258], [75.1881461, 12.532327], [75.1793668, 12.5333926], [75.1769188, 12.5330271], [75.174328, 12.5305971], [75.1739662, 12.5285104], [75.1749364, 12.526825], [75.1727358, 12.523695], [75.1709617, 12.5181363], [75.1723758, 12.5137219], [75.1712905, 12.5103349], [75.1725566, 12.5088741], [75.172606, 12.5070441], [75.1715865, 12.5060488], [75.1609808, 12.5042509], [75.1616057, 12.5005748], [75.1568866, 12.4967541], [75.1561137, 12.4927889], [75.1523154, 12.4895942], [75.1554067, 12.4841038], [75.1486142, 12.4792046], [75.1394057, 12.4802263], [75.134848, 12.4778423], [75.1313832, 12.4795905], [75.1261511, 12.4795678], [75.1239187, 12.4785007], [75.1171984, 12.4721434], [75.1098502, 12.4835638], [75.1079934, 12.485189], [75.104639, 12.4855904], [75.0997424, 12.4928063], [75.0981147, 12.492829], [75.0950387, 12.4899074], [75.0969296, 12.4872104], [75.0938661, 12.4830994], [75.0776582, 12.4822527], [75.0750742, 12.4851106], [75.0756091, 12.4917174], [75.0711211, 12.4955996], [75.0666099, 12.4953499], [75.0614697, 12.4933865], [75.0490998, 12.4946461], [75.0399611, 12.4923758], [75.0351243, 12.4928752], [75.0328687, 12.4955088], [75.03052, 12.5016158], [75.02273, 12.5056341], [75.0179863, 12.5031369], [75.0108008, 12.5022969], [75.0048711, 12.5045671], [75.0000809, 12.5042039], [74.9978252, 12.4972569], [74.997616, 12.4929206], [75.0019412, 12.484316], [75.0028713, 12.4780723], [75.0017784, 12.4746666], [74.9877969, 12.4737706]], [[75.1531014, 12.6145433], [75.1511674, 12.614669], [75.1496491, 12.6135283], [75.1479275, 12.6144613], [75.1470349, 12.6117025], [75.1455325, 12.6118203], [75.1461042, 12.6105773], [75.1405519, 12.6114825], [75.1339721, 12.6102968], [75.1324178, 12.606632], [75.1341518, 12.6056325], [75.1341338, 12.6034011], [75.1272744, 12.6038044], [75.1281773, 12.6020684], [75.1268027, 12.600065], [75.1251452, 12.6016169], [75.1219737, 12.6005253], [75.1202316, 12.6010268], [75.1184147, 12.6003511], [75.1170806, 12.5981067], [75.1127571, 12.5971466], [75.1130019, 12.5998029], [75.1111469, 12.5989411], [75.1098064, 12.6008072], [75.1082436, 12.601173], [75.1035807, 12.5983273], [75.1021386, 12.6006212], [75.1029137, 12.6036095], [75.1003599, 12.6040187], [75.0990512, 12.60555], [75.0957414, 12.6066597], [75.0942803, 12.6052028], [75.0896682, 12.6046944], [75.0883277, 12.6089164], [75.0829215, 12.6106708], [75.0807044, 12.6134234], [75.0744686, 12.6148948], [75.0724382, 12.6166044], [75.0664458, 12.6187173], [75.0637415, 12.6186997], [75.0616662, 12.6202954], [75.0592405, 12.6193748], [75.0575874, 12.620909], [75.0581893, 12.6224082], [75.0569136, 12.6323323], [75.0533918, 12.6360406], [75.0492141, 12.6367156], [75.050418, 12.6399417], [75.0466716, 12.638241], [75.0480732, 12.6413969], [75.0466986, 12.6424752], [75.0434733, 12.641318], [75.0444166, 12.6376975], [75.0421077, 12.6372942], [75.0394124, 12.635348], [75.0379246, 12.6390199], [75.0366522, 12.6390293], [75.0354843, 12.637688], [75.0334988, 12.6381088], [75.0333191, 12.6363468], [75.0305519, 12.634874], [75.0249818, 12.6282113], [75.0211006, 12.6311657], [75.0188259, 12.6281006], [75.0149572, 12.626122], [75.0140527, 12.6294149], [75.0131379, 12.6297993], [75.0098354, 12.6261662], [75.0057263, 12.6272106], [75.002715, 12.632703], [75.0003264, 12.6323062], [74.9978429, 12.634653]], [[75.2411465, 12.4591929], [75.2395297, 12.4591015], [75.2366363, 12.4563926], [75.2337089, 12.4560935], [75.2280243, 12.4425153], [75.2273009, 12.4375625], [75.2239671, 12.4349199], [75.2189247, 12.435626], [75.2089813, 12.434791], [75.206076, 12.4304047], [75.2013359, 12.4297996], [75.1992106, 12.4272861], [75.1957748, 12.4262253], [75.192559, 12.4333156], [75.1849573, 12.4327849], [75.1835878, 12.4335547], [75.1843558, 12.4358701], [75.1830451, 12.4361718], [75.1787378, 12.4311724], [75.174521, 12.4318018], [75.1726843, 12.4280351], [75.1702799, 12.4285243], [75.1687521, 12.4301386], [75.1642605, 12.4275704], [75.1626575, 12.4234286], [75.1601946, 12.4226133], [75.1594516, 12.421056], [75.1570722, 12.4215452], [75.1578403, 12.4237139], [75.1561372, 12.4249858], [75.1515788, 12.4192133], [75.1461938, 12.4199553]]]}}, {"type": "Feature", "properties": {"id": "mayyazhi", "name": "Mayyazhi (Mahe)", "featured": false, "gauge_town": "Reference point, 17 km above mouth", "gauge_coordinates": [75.5993, 11.7185], "outlet": "azhikkal", "length_km": 56.4, "source": "OpenStreetMap"}, "geometry": {"type": "LineString", "coordinates": [[75.7945034, 11.7919776], [75.7935214, 11.7888128], [75.7941815, 11.7879998], [75.7938436, 11.7829449], [75.7912043, 11.7775017], [75.7884818, 11.7758817], [75.7850539, 11.7768532], [75.7800436, 11.7741276], [75.7766962, 11.7758291], [75.7740783, 11.7739176], [75.7716321, 11.7739386], [75.767405, 11.7707666], [75.7662367, 11.7710344], [75.7627916, 11.768666], [75.7602873, 11.7684976], [75.7527227, 11.7644116], [75.7488833, 11.7648855], [75.7472152, 11.7637479], [75.7439088, 11.7583095], [75.7399392, 11.7581414], [75.7353687, 11.7593389], [75.7338237, 11.7572801], [75.7328873, 11.7527923], [75.7296502, 11.7501275], [75.7282447, 11.7452557], [75.7229492, 11.7450728], [75.7222411, 11.7466274], [75.7179496, 11.7435602], [75.7184646, 11.740724], [75.7218978, 11.7367744], [75.7223484, 11.7346104], [75.7208464, 11.7330978], [75.7174194, 11.7344866], [75.7141042, 11.7342398], [75.7154453, 11.7292185], [75.7137662, 11.7282363], [75.7146237, 11.7258284], [75.7132074, 11.7232442], [75.7135797, 11.722272], [75.7129148, 11.7216175], [75.7101605, 11.7226559], [75.7140872, 11.7186009], [75.7143662, 11.7172353], [75.7120702, 11.7149871], [75.7100103, 11.7159746], [75.7055765, 11.7137186], [75.7063514, 11.7087934], [75.7047558, 11.7084028], [75.7026029, 11.7106638], [75.6980458, 11.7070078], [75.6962023, 11.7100181], [75.6945822, 11.7103857], [75.6934664, 11.709041], [75.6940444, 11.7064619], [75.6922433, 11.7058683], [75.6893251, 11.7068979], [75.6859931, 11.7044794], [75.6821314, 11.7058473], [75.6797719, 11.703013], [75.678302, 11.7048305], [75.6788108, 11.7078014], [75.6731138, 11.7107324], [75.6700292, 11.706693], [75.6742519, 11.7049408], [75.6742403, 11.7041033], [75.6693587, 11.7032103], [75.6669769, 11.7012143], [75.6644472, 11.7015998], [75.662739, 11.7024224], [75.6608301, 11.7069789], [75.6576401, 11.7039721], [75.6537697, 11.7050489], [75.6547567, 11.7088729], [75.6538126, 11.7095033], [75.6508228, 11.707959], [75.650569, 11.7108368], [75.6478697, 11.7135817], [75.6463745, 11.7140283], [75.6439885, 11.7126984], [75.6404931, 11.7134554], [75.6387734, 11.7161101], [75.635845, 11.717524], [75.6360161, 11.719871], [75.6385803, 11.722949], [75.6383336, 11.7241361], [75.6349862, 11.7254597], [75.6333071, 11.7278128], [75.6319338, 11.7274136], [75.6317782, 11.7250815], [75.628463, 11.7258169], [75.6248367, 11.7251866], [75.6243861, 11.7309222], [75.621382, 11.7298927], [75.6193757, 11.727277], [75.6168491, 11.7267141], [75.6156048, 11.7239157], [75.6104574, 11.7249302], [75.6096905, 11.7215743], [75.6078788, 11.7201936], [75.6069116, 11.7177642], [75.6061245, 11.7183846], [75.6075853, 11.7216633], [75.6060723, 11.7222394], [75.6021955, 11.7181368], [75.5989489, 11.7184937], [75.5972597, 11.7148337], [75.594623, 11.7127211], [75.5896274, 11.7130246], [75.5870745, 11.7120147], [75.587243, 11.7107897], [75.5919031, 11.7094404], [75.5936737, 11.7063434], [75.5918228, 11.6982481], [75.5944736, 11.6964184], [75.6006565, 11.6959701], [75.602431, 11.694095], [75.6035133, 11.6897404], [75.5994362, 11.6867671], [75.590433, 11.688856], [75.5852524, 11.6859962], [75.5788434, 11.6796061], [75.5708423, 11.6750745], [75.5670856, 11.6775644], [75.5653242, 11.6804392], [75.5622253, 11.6806049], [75.5614519, 11.6845963], [75.5640218, 11.6925411], [75.5629273, 11.6946758], [75.5565788, 11.6980837], [75.5536657, 11.7027279], [75.549821, 11.7047349], [75.5446822, 11.70447], [75.5383702, 11.7092796], [75.5359435, 11.7094003], [75.534574, 11.7088179], [75.5332534, 11.7057776], [75.5308867, 11.7035707]]}}, {"type": "Feature", "properties": {"id": "kariangode", "name": "Kariangode", "featured": false, "gauge_town": "Reference point, 14 km above mouth", "gauge_coordinates": [75.1949, 12.2753], "outlet": "kasaragod", "length_km": 47.7, "source": "OpenStreetMap"}, "geometry": {"type": "LineString", "coordinates": [[75.4129865, 12.2932951], [75.4101031, 12.2946701], [75.4064029, 12.2931317], [75.3965128, 12.2947663], [75.394397, 12.2908047], [75.3925173, 12.2901605], [75.3903031, 12.292324], [75.3913955, 12.2961797], [75.3902145, 12.2974393], [75.3874492, 12.2958143], [75.3857467, 12.2923721], [75.3857664, 12.2902278], [75.3873607, 12.2886509], [75.3868588, 12.2869489], [75.3837785, 12.2867759], [75.3814364, 12.284545], [75.3763289, 12.2841604], [75.3747052, 12.2826796], [75.3707688, 12.2846508], [75.368958, 12.2845066], [75.3653169, 12.2795352], [75.3642147, 12.275785], [75.3603865, 12.2750542], [75.3570614, 12.2720814], [75.3493869, 12.2691704], [75.3463227, 12.2664535], [75.3437267, 12.2666614], [75.3394425, 12.2691011], [75.3314306, 12.2656696], [75.32798, 12.2655617], [75.3267261, 12.2662479], [75.3266659, 12.270149], [75.3233156, 12.2726583], [75.3189822, 12.273609], [75.3160431, 12.2712174], [75.3118637, 12.2699236], [75.3071954, 12.2708879], [75.3021736, 12.2691135], [75.2982511, 12.2690304], [75.290493, 12.2600734], [75.2887777, 12.2592304], [75.2868668, 12.2615437], [75.286937, 12.2666751], [75.2784759, 12.2668662], [75.2736336, 12.2709369], [75.2733728, 12.2789252], [75.2666721, 12.2778176], [75.2640981, 12.281011], [75.2573834, 12.2776608], [75.2522676, 12.2695352], [75.2439821, 12.2717406], [75.2375823, 12.2672612], [75.2259426, 12.2668252], [75.2239364, 12.2681386], [75.2230297, 12.2700326], [75.2253608, 12.273608], [75.2254811, 12.2764309], [75.2226123, 12.2807239], [75.217015, 12.2745939], [75.2116959, 12.2771237], [75.2075029, 12.2803778], [75.2046742, 12.2806718], [75.1972714, 12.2756143], [75.1886247, 12.275085], [75.1791851, 12.2724558], [75.1705671, 12.2671714], [75.1643795, 12.2520775], [75.1629036, 12.243196], [75.1594886, 12.2397187], [75.1556033, 12.2379601], [75.1456854, 12.2362215], [75.1368514, 12.2317648], [75.1340907, 12.2312252], [75.1252976, 12.2330439], [75.1223529, 12.2320446], [75.1186925, 12.2281076], [75.1179563, 12.2251897], [75.1196807, 12.2147815], [75.1227823, 12.2114194], [75.1240981, 12.2057831], [75.1199739, 12.1999745]]}}, {"type": "Feature", "properties": {"id": "anjarakandy", "name": "Anjarakandy", "featured": false, "gauge_town": "Reference point, 14 km above mouth", "gauge_coordinates": [75.5295, 11.8917], "outlet": "azhikkal", "length_km": 45.6, "source": "OpenStreetMap"}, "geometry": {"type": "LineString", "coordinates": [[75.6754852, 11.8462584], [75.674339, 11.8474873], [75.6676738, 11.8436256], [75.6664114, 11.8438116], [75.6661835, 11.8423905], [75.6640951, 11.8417931], [75.6623253, 11.8428953], [75.6617912, 11.8456385], [75.6581871, 11.8458304], [75.6564133, 11.8496452], [75.6543862, 11.8513945], [75.6518799, 11.851211], [75.6508082, 11.8490051], [75.6470841, 11.84581], [75.6455958, 11.847911], [75.6469126, 11.8494817], [75.6450064, 11.8502806], [75.6448345, 11.8522786], [75.6397451, 11.8496192], [75.636456, 11.8541275], [75.638083, 11.8565436], [75.6395649, 11.8571108], [75.638439, 11.8583666], [75.6357937, 11.8582875], [75.6371683, 11.8613319], [75.6347168, 11.8601244], [75.6359935, 11.8641773], [75.6349184, 11.8644758], [75.6332132, 11.8626672], [75.6329113, 11.8645379], [75.6306967, 11.865958], [75.6273243, 11.8627124], [75.6252265, 11.8625946], [75.6250817, 11.8637968], [75.6269152, 11.8649464], [75.6263732, 11.8670688], [75.6223498, 11.8688747], [75.6203082, 11.8727187], [75.6171675, 11.8702348], [75.6149331, 11.8738356], [75.6133137, 11.874746], [75.6123618, 11.8702151], [75.6101911, 11.8687103], [75.6080721, 11.8726639], [75.6054448, 11.8744299], [75.6031578, 11.8716313], [75.6015426, 11.8718673], [75.5990874, 11.8684248], [75.5938331, 11.873077], [75.5928382, 11.8727314], [75.5924893, 11.8701518], [75.590198, 11.8684575], [75.5860977, 11.8675428], [75.5837975, 11.8685467], [75.5851255, 11.870229], [75.5853613, 11.8726026], [75.5825315, 11.8738183], [75.580426, 11.8734762], [75.5790364, 11.8706452], [75.5737137, 11.8712963], [75.5777436, 11.8732867], [75.5766909, 11.8768347], [75.5790575, 11.8778814], [75.5794659, 11.8797481], [75.5752213, 11.8791753], [75.5713135, 11.8821629], [75.5695533, 11.8811533], [75.5690733, 11.8774858], [75.5640496, 11.8804693], [75.5629084, 11.8775929], [75.5618599, 11.877457], [75.5614261, 11.8807371], [75.5595438, 11.8814211], [75.5607355, 11.8841779], [75.556474, 11.8859045], [75.553779, 11.8847672], [75.5529663, 11.8817178], [75.5485785, 11.8804074], [75.5459003, 11.8817055], [75.5442664, 11.8813676], [75.5427, 11.8854059], [75.5435337, 11.8866215], [75.5464393, 11.8869923], [75.5465362, 11.8898809], [75.5399544, 11.8888879], [75.5371878, 11.8910759], [75.5337769, 11.8921431], [75.532202, 11.8942941], [75.5298485, 11.8911666], [75.5285683, 11.894566], [75.5273387, 11.8949863], [75.5256417, 11.8928189], [75.5256543, 11.8910965], [75.527044, 11.8892175], [75.5275914, 11.8861311], [75.5303664, 11.8868069], [75.5294316, 11.8835763], [75.530299, 11.8797522], [75.5260207, 11.8803868], [75.519519, 11.8786767], [75.5175019, 11.8762166], [75.516327, 11.8789322], [75.5150511, 11.8789858], [75.5129877, 11.8778278], [75.5101116, 11.8736411], [75.5090463, 11.8734556], [75.5077367, 11.8756108], [75.5063176, 11.8761383], [75.5041489, 11.8735174], [75.5055891, 11.8679624], [75.5005148, 11.8587149], [75.5038331, 11.8537407], [75.5069485, 11.8527245], [75.5071393, 11.8503191], [75.5033867, 11.8500522], [75.5010353, 11.8481181], [75.4973482, 11.8483254], [75.4896548, 11.8455353], [75.4902569, 11.8395428], [75.4879788, 11.835203], [75.487983, 11.8331711], [75.4892295, 11.8318646], [75.4931369, 11.8308625]]}}, {"type": "Feature", "properties": {"id": "bhavani", "name": "Bhavani", "featured": false, "gauge_town": "Reference point, 25 km above mouth", "gauge_coordinates": [77.0001, 11.3293], "outlet": null, "length_km": 132.3, "source": "OpenStreetMap"}, "geometry": {"type": "MultiLineString", "coordinates": [[[76.4691876, 11.1941722], [76.4729427, 11.1895202], [76.4748953, 11.1914884], [76.4751099, 11.1931618], [76.4845083, 11.2007606], [76.486858, 11.2014763], [76.4879523, 11.2008658], [76.4928017, 11.2038232], [76.4945505, 11.2025918], [76.5003705, 11.2045149]], [[76.52483, 11.2294447], [76.523003, 11.2296958], [76.5218435, 11.2310632], [76.5192938, 11.2277274], [76.5208802, 11.2225105], [76.5156597, 11.2200325], [76.5135032, 11.2202413], [76.5124298, 11.2170841], [76.5106813, 11.2156609], [76.5087112, 11.2169557], [76.5063265, 11.2131626], [76.5020725, 11.211213], [76.5021959, 11.2091266], [76.5034396, 11.2075803], [76.5003705, 11.2045149], [76.5035029, 11.2008914], [76.5026515, 11.1981626], [76.5049598, 11.1949697], [76.5089145, 11.1802565], [76.5131516, 11.1740638], [76.5124365, 11.1712661], [76.5144643, 11.165698], [76.5173181, 11.1612351], [76.5203759, 11.1607825], [76.522057, 11.1573839], [76.5238628, 11.1564879], [76.5256545, 11.153851], [76.5259335, 11.1455063], [76.5234444, 11.1420141], [76.5263626, 11.1379298], [76.5263841, 11.1332032], [76.5292915, 11.1297924], [76.5250389, 11.1248973], [76.5217009, 11.1233709], [76.5209552, 11.1220023], [76.5223178, 11.1180756], [76.5278968, 11.1177124], [76.5310457, 11.1150235], [76.5328428, 11.1111941], [76.5312541, 11.1036632], [76.5339005, 11.1025987], [76.5360702, 11.102889], [76.5371058, 11.1015019], [76.5344594, 11.0940982], [76.5299884, 11.0924691], [76.5289529, 11.0857105], [76.5304322, 11.0809197], [76.5330293, 11.0791291], [76.5352427, 11.0752659], [76.5360867, 11.0723541], [76.5355442, 11.0684019], [76.5372836, 11.0654582], [76.5384701, 11.0671275], [76.5492036, 11.0713378], [76.555532, 11.0683212], [76.5579482, 11.0708377], [76.5578011, 11.0757727], [76.5596413, 11.0772741], [76.564697, 11.0754489], [76.5675992, 11.0778101], [76.5685174, 11.0802744], [76.5741974, 11.0787603], [76.5761313, 11.0795973], [76.5774609, 11.0831179], [76.5766374, 11.0850653], [76.5810755, 11.0872267], [76.5859902, 11.0866944], [76.5868778, 11.0917432], [76.5884229, 11.0936143], [76.5930254, 11.0936305], [76.5924665, 11.1025503], [76.5907406, 11.1068246], [76.5935021, 11.1095343], [76.5973774, 11.1083505], [76.6008567, 11.1138471], [76.6028514, 11.1125338], [76.6079055, 11.1138263], [76.6097873, 11.119445], [76.6119918, 11.1206057], [76.614707, 11.1240613], [76.6166426, 11.1234546], [76.618175, 11.1211069], [76.6201913, 11.1210805], [76.6256636, 11.1258812], [76.6276538, 11.1288762], [76.6326857, 11.1282919], [76.6337746, 11.1306552], [76.6355073, 11.1316132], [76.6388494, 11.1290551], [76.6408378, 11.128915], [76.6454315, 11.1347818], [76.645748, 11.1369398], [76.6485161, 11.1384135], [76.64772, 11.141919], [76.650002, 11.1447927], [76.6521478, 11.1459769], [76.6556722, 11.1456769], [76.6603025, 11.1496662], [76.6644427, 11.1485299], [76.6661353, 11.1493308], [76.6676407, 11.1510188], [76.6664847, 11.1527333], [76.6671059, 11.1555763], [76.6746305, 11.1575337], [76.6794095, 11.1643086], [76.6819966, 11.1652615], [76.6872926, 11.1622549], [76.6914153, 11.1629898], [76.6927373, 11.1664249], [76.6928477, 11.1720544], [76.6967235, 11.1751996], [76.7012646, 11.1754826], [76.699858, 11.1788392], [76.7003528, 11.1814237], [76.7031729, 11.181084], [76.7061327, 11.1788918], [76.7075993, 11.1792509], [76.7094517, 11.1830088], [76.7097675, 11.1872464], [76.7128267, 11.1880434], [76.7160591, 11.1859489], [76.7180959, 11.1858017], [76.7200584, 11.1867775], [76.72108, 11.1902323], [76.7232689, 11.1918428], [76.7290156, 11.1905779], [76.7317359, 11.1911001], [76.73412, 11.1964859], [76.7378346, 11.1979247], [76.742335, 11.2016444], [76.7420638, 11.2053598], [76.7450422, 11.2050766], [76.7480348, 11.2066615], [76.7507236, 11.211206], [76.7568143, 11.2154301], [76.7593291, 11.2189093], [76.7625594, 11.2204176], [76.7643617, 11.2244134], [76.7673853, 11.2259477], [76.7718297, 11.2321784], [76.7826199, 11.237696], [76.7952274, 11.2478332], [76.8086503, 11.2628699], [76.827533, 11.2669103], [76.8395637, 11.27455], [76.8404531, 11.2745584], [76.8412073, 11.2726361], [76.8433259, 11.2722976], [76.8464158, 11.2738128], [76.8523766, 11.2735657], [76.8544839, 11.2743178], [76.8562005, 11.2781898], [76.8635819, 11.2825668], [76.8662131, 11.2811998], [76.8710979, 11.2818521], [76.8743966, 11.2844186], [76.8762788, 11.2844551], [76.8809304, 11.2825372], [76.8882895, 11.2825194], [76.8930104, 11.291822], [76.8917164, 11.295251], [76.892346, 11.2988496], [76.8964146, 11.3056536], [76.8999741, 11.307649], [76.903578, 11.3067861], [76.9103563, 11.3090571], [76.9163001, 11.3094464], [76.9207452, 11.3074806], [76.9270966, 11.3081539], [76.9336402, 11.3113689], [76.9379285, 11.3110015], [76.9395913, 11.3169562], [76.9421018, 11.3176918], [76.9466318, 11.317029], [76.9485725, 11.3188948], [76.948211, 11.3234714], [76.9495843, 11.324818], [76.9523436, 11.3237328], [76.9525115, 11.3222435], [76.9552491, 11.3192634], [76.9607423, 11.32061], [76.9638322, 11.3241447], [76.9627193, 11.3341996], [76.9661353, 11.33696], [76.9661519, 11.3382365], [76.9701836, 11.3384515], [76.9724095, 11.3403378], [76.9752538, 11.3400756], [76.9784373, 11.3377665], [76.983508, 11.3362566], [76.9845201, 11.3340069], [76.9842597, 11.3317075], [76.9808988, 11.3300269], [76.9798574, 11.3269867], [76.9866809, 11.3253983], [76.9841414, 11.3187942], [76.9848164, 11.3182299], [76.9932573, 11.3199191], [76.9927658, 11.315258], [76.9951751, 11.312339], [76.9977796, 11.3152408], [77.0013852, 11.3160005], [77.0026987, 11.3210885], [76.9994788, 11.3267894], [76.999751, 11.3288433], [77.0033956, 11.3326282], [77.0024382, 11.3383935], [77.0036322, 11.3388355], [77.0070883, 11.337662], [77.0052146, 11.3431931], [77.0063783, 11.3446705], [77.0085203, 11.3440787], [77.012544, 11.3397971], [77.0161084, 11.3432973], [77.0152002, 11.3475593], [77.0108674, 11.3487183], [77.0094336, 11.3592341], [77.0141289, 11.3704288], [77.0165322, 11.3712703], [77.0192788, 11.3697556], [77.0250392, 11.3726123], [77.0246744, 11.3797856], [77.0268845, 11.3836982], [77.0286011, 11.385318], [77.0328712, 11.3866011], [77.0361113, 11.3926172], [77.0432782, 11.3996217], [77.0449519, 11.4038075], [77.0427417, 11.4126417], [77.0439863, 11.4176055], [77.0483636, 11.4221907], [77.0538139, 11.4233685], [77.0581913, 11.4227375], [77.0624828, 11.423705], [77.0667314, 11.4262289], [77.0693492, 11.4294259], [77.0698856, 11.4344315], [77.069199, 11.4388271], [77.0707225, 11.4433488], [77.0793914, 11.4514247], [77.0970725, 11.4605097], [77.1107252, 11.465549], [77.1141124, 11.4698068]]]}}]}