{"type": "FeatureCollection", "note": "Kerala state boundary derived from OpenStreetMap (relation 2018151), simplified for map rendering.", "features": [{"type": "Feature", "properties": {"id": "kerala", "name": "Kerala", "source": "OpenStreetMap"}, "geometry": {"type": "Polygon", "coordinates": [[[74.8640682, 12.7600633], [74.8742241, 12.7615486], [74.8755329, 12.7567876], [74.88388, 12.7554272], [74.894523, 12.7637513], [74.8999947, 12.7636362], [74.9034065, 12.7674972], [74.9337827, 12.7804068], [74.9563479, 12.7854992], [74.9609246, 12.7799276], [74.9664867, 12.7819104], [74.9672806, 12.7775368], [74.9738141, 12.7783539], [74.9823975, 12.7800166], [74.9836743, 12.783281], [74.9888324, 12.7832945], [74.9925446, 12.7882539], [74.9897572, 12.7936714], [74.9913536, 12.7960486], [75.0009152, 12.7867975], [75.0033939, 12.7878638], [75.0017202, 12.7912746], [75.0057542, 12.7926243], [75.0074813, 12.791014], [75.0056574, 12.7757487], [75.0109338, 12.7684787], [74.9986707, 12.7569476], [74.9897443, 12.7427371], [74.9846159, 12.7440347], [74.9841118, 12.7356734], [74.9862167, 12.7340388], [74.9886525, 12.7373866], [74.9914094, 12.7362673], [74.9927723, 12.7403271], [75.0004756, 12.7330332], [75.0134575, 12.7286378], [75.0057864, 12.7208725], [75.0013744, 12.7200697], [75.0020957, 12.716027], [75.014627, 12.7146978], [75.018897, 12.7206423], [75.0296152, 12.719669], [75.0353873, 12.7240226], [75.0526929, 12.7203702], [75.0566518, 12.7078008], [75.0519633, 12.7046715], [75.0568664, 12.6947807], [75.0547107, 12.6913832], [75.0465774, 12.6936922], [75.0420928, 12.6890345], [75.0421997, 12.6733348], [75.0470706, 12.6687814], [75.0540444, 12.6695037], [75.0588938, 12.665861], [75.0592157, 12.6699224], [75.0684639, 12.6636208], [75.0733863, 12.6717773], [75.0864884, 12.674549], [75.0842138, 12.6964878], [75.0804591, 12.6995849], [75.0857674, 12.7035965], [75.1061436, 12.6965296], [75.1122322, 12.6839119], [75.121518, 12.6789767], [75.1245758, 12.6818028], [75.12773, 12.6774067], [75.1329353, 12.6755007], [75.1334094, 12.6777557], [75.137198, 12.6762944], [75.139513, 12.6799315], [75.1426949, 12.6779655], [75.1454406, 12.681367], [75.1517215, 12.6828137], [75.1491988, 12.6740352], [75.1613867, 12.671523], [75.1512265, 12.6570669], [75.1497352, 12.6492995], [75.1432657, 12.6462636], [75.1407981, 12.6424949], [75.1456261, 12.6390978], [75.154252, 12.6240902], [75.1616764, 12.6215147], [75.1708603, 12.6217451], [75.1831984, 12.6316072], [75.2005577, 12.6288643], [75.1987982, 12.6119872], [75.2049565, 12.6096629], [75.209012, 12.6017893], [75.2070379, 12.5974126], [75.2013516, 12.5943447], [75.2004933, 12.5895491], [75.2090335, 12.5914967], [75.2120483, 12.5795283], [75.2162218, 12.5775702], [75.2201486, 12.5692976], [75.2368855, 12.5689835], [75.2380872, 12.5778948], [75.2500391, 12.584743], [75.2651667, 12.6057052], [75.2658748, 12.6150445], [75.2738571, 12.6188973], [75.2810883, 12.6173478], [75.2886629, 12.6107937], [75.2909159, 12.6034436], [75.3017092, 12.6053701], [75.3110647, 12.59157], [75.327115, 12.5920726], [75.3255057, 12.5830676], [75.3177595, 12.5786697], [75.3143263, 12.5738738], [75.3048634, 12.5797377], [75.289607, 12.5824603], [75.2841782, 12.5720936], [75.2742219, 12.5715072], [75.2694797, 12.5603023], [75.2732563, 12.5357546], [75.2801442, 12.5241921], [75.2909589, 12.5250928], [75.2954864, 12.5239407], [75.2961731, 12.5215527], [75.3024387, 12.5215318], [75.3030824, 12.5060513], [75.3059149, 12.5014216], [75.3128242, 12.5017149], [75.3144121, 12.4973784], [75.3320074, 12.4986773], [75.3338313, 12.490088], [75.3361702, 12.4893338], [75.3346467, 12.4788796], [75.3396463, 12.4702896], [75.3367924, 12.4638365], [75.359559, 12.4646117], [75.3663611, 12.4738304], [75.3712535, 12.4763026], [75.3708672, 12.4849552], [75.3676486, 12.4881396], [75.3675198, 12.4920992], [75.3759312, 12.4945712], [75.3821325, 12.5008141], [75.3907585, 12.5000809], [75.3975177, 12.5033908], [75.4026675, 12.497567], [75.4108, 12.5010655], [75.4161283, 12.5000289], [75.4166579, 12.4937751], [75.4205417, 12.4872597], [75.4203701, 12.4785025], [75.4247474, 12.4739771], [75.4236746, 12.4673355], [75.4160571, 12.4661412], [75.4149198, 12.460547], [75.4110789, 12.4575508], [75.3947496, 12.4518936], [75.3853082, 12.4578861], [75.3800082, 12.457268], [75.3738499, 12.4599394], [75.371232, 12.4568699], [75.3654385, 12.4578232], [75.3696442, 12.4503745], [75.3685498, 12.4425379], [75.370996, 12.4366394], [75.3660393, 12.4121533], [75.3712964, 12.4070714], [75.3715646, 12.4000823], [75.3771329, 12.3979971], [75.3800833, 12.3912907], [75.3927648, 12.3889538], [75.398494, 12.3810106], [75.4148447, 12.3791348], [75.4217756, 12.3715581], [75.4189432, 12.3554713], [75.4160249, 12.3507132], [75.4099846, 12.3474851], [75.4150486, 12.3389852], [75.4157781, 12.3294997], [75.4208743, 12.3183997], [75.4259881, 12.3119175], [75.4323219, 12.309644], [75.4277821, 12.3073739], [75.4279162, 12.3041432], [75.423401, 12.3027289], [75.4245306, 12.3000221], [75.415636, 12.2927677], [75.4131662, 12.2930709], [75.4141513, 12.2896307], [75.4178595, 12.288116], [75.4279361, 12.2938695], [75.4358063, 12.2945748], [75.4558825, 12.2914848], [75.4669887, 12.2970762], [75.4759876, 12.2955983], [75.4848578, 12.2899964], [75.4938989, 12.2728697], [75.4985049, 12.2699407], [75.5045007, 12.2713022], [75.5069217, 12.2681602], [75.5061651, 12.2643528], [75.511776, 12.260411], [75.5117154, 12.253981], [75.5187964, 12.2466208], [75.5209851, 12.2359472], [75.527637, 12.2309562], [75.5268001, 12.2245392], [75.53931, 12.2165071], [75.5365205, 12.2076988], [75.5319714, 12.2059371], [75.5322504, 12.2014699], [75.5337095, 12.2035357], [75.5394816, 12.2032421], [75.5413592, 12.1973592], [75.547024, 12.1976947], [75.5479038, 12.193542], [75.5524528, 12.1921263], [75.5551994, 12.1822055], [75.5582785, 12.1810939], [75.5606067, 12.1753888], [75.5693722, 12.1723264], [75.5771077, 12.1581362], [75.5821288, 12.1583984], [75.587976, 12.1546541], [75.5916184, 12.1479101], [75.5934691, 12.1477213], [75.5955505, 12.1534794], [75.6059468, 12.1550212], [75.6110322, 12.1521369], [75.6182742, 12.1564371], [75.6306124, 12.1487491], [75.6381011, 12.1471444], [75.6377363, 12.1395715], [75.6423712, 12.1388792], [75.6444096, 12.1346417], [75.6490016, 12.1118794], [75.651716, 12.1118898], [75.660916, 12.0995375], [75.6758506, 12.0974335], [75.687325, 12.1099492], [75.701487, 12.1093617], [75.7033753, 12.1052705], [75.7021737, 12.092556], [75.7134604, 12.0905838], [75.7178378, 12.0865133], [75.7153916, 12.0820441], [75.7155633, 12.0703147], [75.7264101, 12.0720038], [75.7360661, 12.079096], [75.7431042, 12.0804809], [75.7466555, 12.0780049], [75.7512259, 12.0827785], [75.7562685, 12.0839535], [75.769701, 12.0843731], [75.7750869, 12.0822119], [75.7850861, 12.0841003], [75.8031106, 12.0783302], [75.8041835, 12.0759801], [75.7979607, 12.0573047], [75.7943988, 12.0559827], [75.7996988, 12.0484912], [75.8010506, 12.0379145], [75.8099556, 12.0306114], [75.8107495, 12.0235599], [75.8225727, 12.0140526], [75.8201694, 12.0047129], [75.8254909, 12.0029499], [75.8244395, 11.9968212], [75.8294177, 11.9861585], [75.8481502, 11.981058], [75.8481717, 11.9767129], [75.8589005, 11.959815], [75.8661961, 11.9581776], [75.8691788, 11.9534124], [75.8780193, 11.9508093], [75.8904609, 11.9513229], [75.8997378, 11.945081], [75.9191805, 11.9447645], [75.9306801, 11.940887], [75.9364748, 11.9427664], [75.9564504, 11.9416046], [75.9763891, 11.9340826], [76.0036262, 11.9312137], [76.0065863, 11.9382103], [76.0128827, 11.9417366], [76.0161813, 11.9409712], [76.0220676, 11.9439964], [76.0336437, 11.9400877], [76.0422598, 11.9459464], [76.0447201, 11.9504295], [76.051791, 11.9515776], [76.0705981, 11.9672685], [76.0896605, 11.9673414], [76.1125536, 11.9786826], [76.1133881, 11.8947005], [76.1118026, 11.8876296], [76.1148643, 11.8665262], [76.112789, 11.8583375], [76.1178348, 11.8570861], [76.1201314, 11.8506066], [76.1322743, 11.8538347], [76.1459027, 11.8671198], [76.1494557, 11.866588], [76.1561355, 11.8705406], [76.1652081, 11.8682848], [76.1737022, 11.8720427], [76.1898531, 11.8718512], [76.2076974, 11.8608767], [76.2106724, 11.8445434], [76.2132284, 11.8427575], [76.2100164, 11.8281008], [76.2170235, 11.8218637], [76.2180506, 11.8149775], [76.2218756, 11.8101411], [76.2266702, 11.8060783], [76.2462958, 11.8030155], [76.2602181, 11.8092868], [76.2804932, 11.8115352], [76.2906406, 11.7925303], [76.3013597, 11.7855933], [76.3075103, 11.7844726], [76.3177683, 11.7512857], [76.330026, 11.7476965], [76.3403408, 11.7382109], [76.3527422, 11.7383385], [76.3623841, 11.7481676], [76.3765155, 11.7445438], [76.3838962, 11.7466122], [76.3934911, 11.7554053], [76.3985724, 11.751519], [76.4095768, 11.7587458], [76.4146881, 11.757652], [76.4157375, 11.7550014], [76.4127989, 11.7529074], [76.4102618, 11.7415322], [76.41282, 11.7394987], [76.4182891, 11.7424533], [76.4273969, 11.7261284], [76.4239928, 11.7200605], [76.4171661, 11.7176509], [76.4140552, 11.71115], [76.4107551, 11.7155605], [76.4053276, 11.7108202], [76.4032517, 11.7114577], [76.4030496, 11.7076447], [76.405243, 11.705161], [76.4088859, 11.7057458], [76.4116242, 11.6952533], [76.4082708, 11.68912], [76.4126327, 11.6863125], [76.4157324, 11.672535], [76.4284738, 11.6699324], [76.4435318, 11.6447354], [76.4409783, 11.6402799], [76.4302861, 11.630101], [76.4263235, 11.6329602], [76.4063439, 11.6342232], [76.3882398, 11.6297954], [76.3835445, 11.624401], [76.3838651, 11.6119931], [76.3782191, 11.6085418], [76.377511, 11.6017317], [76.3674244, 11.5983069], [76.3542085, 11.5894227], [76.3407293, 11.5879837], [76.3399696, 11.5933199], [76.3360207, 11.595719], [76.3213696, 11.5860222], [76.3160051, 11.5765004], [76.310526, 11.577373], [76.3022669, 11.5712662], [76.2958988, 11.5904167], [76.286037, 11.5902759], [76.278921, 11.6008997], [76.2742567, 11.593513], [76.2649299, 11.5938768], [76.2644605, 11.5906761], [76.2344047, 11.5721629], [76.2329467, 11.5695614], [76.2383684, 11.5592512], [76.244355, 11.5537111], [76.2421145, 11.5505983], [76.2465145, 11.5460388], [76.2440872, 11.5427454], [76.2499588, 11.5369814], [76.2518815, 11.5377559], [76.250624, 11.5275961], [76.2406464, 11.5278968], [76.2384322, 11.5247987], [76.2446284, 11.5170944], [76.2481466, 11.516487], [76.2485328, 11.5063788], [76.2515899, 11.5018], [76.2476106, 11.4685065], [76.2649417, 11.4810284], [76.2750322, 11.4771692], [76.2844385, 11.4829981], [76.2939601, 11.4731428], [76.2905801, 11.4695526], [76.2935871, 11.4656344], [76.3052997, 11.4677593], [76.3254367, 11.4533506], [76.3381448, 11.4617892], [76.3421207, 11.4674834], [76.3711553, 11.4543537], [76.3729709, 11.4510188], [76.397844, 11.4347182], [76.4187642, 11.4417658], [76.4152045, 11.422658], [76.4619255, 11.3874846], [76.5176401, 11.370785], [76.5150427, 11.3588979], [76.5080584, 11.353472], [76.547735, 11.3582138], [76.5472279, 11.3442238], [76.5499689, 11.3302357], [76.5373879, 11.3136098], [76.5394523, 11.3036723], [76.5455218, 11.2995883], [76.5260648, 11.2875114], [76.5221244, 11.2706426], [76.486961, 11.2582305], [76.4532206, 11.2394311], [76.4489923, 11.2054777], [76.439235, 11.2030082], [76.4386241, 11.1989498], [76.4519212, 11.1992241], [76.4584482, 11.1876836], [76.4666402, 11.193309], [76.4734695, 11.194933], [76.4723759, 11.20875], [76.5005381, 11.2114217], [76.51048, 11.2116272], [76.5160585, 11.2043072], [76.5338473, 11.1967144], [76.6009128, 11.206543], [76.6297147, 11.1941329], [76.653113, 11.2099898], [76.6748685, 11.2189473], [76.6848034, 11.2277228], [76.682816, 11.2301091], [76.6850597, 11.231298], [76.6842194, 11.2337935], [76.6982764, 11.2397325], [76.7071943, 11.2383183], [76.711032, 11.2318588], [76.7209401, 11.2246037], [76.725459, 11.2255579], [76.725815, 11.2186809], [76.7315647, 11.2155646], [76.7222067, 11.2036097], [76.7288129, 11.1909166], [76.7231297, 11.1917161], [76.7174005, 11.1858116], [76.7098689, 11.1872956], [76.7071438, 11.1789281], [76.6998804, 11.1812647], [76.7012643, 11.1756653], [76.6960072, 11.175139], [76.6928315, 11.1719919], [76.6896769, 11.1594753], [76.6960188, 11.1551702], [76.6960917, 11.1500402], [76.7011397, 11.1492383], [76.7001738, 11.1462131], [76.7058927, 11.1415384], [76.7126754, 11.1422166], [76.7091218, 11.1472519], [76.7180965, 11.1473875], [76.7169946, 11.1433155], [76.7245029, 11.1381035], [76.7261613, 11.1333105], [76.7284939, 11.1337297], [76.7282297, 11.1300211], [76.7344167, 11.1361444], [76.7401501, 11.1333566], [76.7391094, 11.1316339], [76.7449522, 11.1364661], [76.748085, 11.1362135], [76.74762, 11.1310052], [76.7452179, 11.1304936], [76.7479481, 11.122768], [76.747538, 11.1114326], [76.745424, 11.1086261], [76.740622, 11.1090726], [76.7406519, 11.1047443], [76.7389272, 11.1044437], [76.746718, 11.0923612], [76.751833, 11.0927853], [76.7545652, 11.0830692], [76.7543765, 11.0779295], [76.7500438, 11.0789574], [76.7483536, 11.074162], [76.7453395, 11.0753812], [76.744645, 11.0721717], [76.7410958, 11.0718774], [76.7437657, 11.0682964], [76.7423989, 11.0662462], [76.7460874, 11.0552069], [76.761124, 11.0527969], [76.7621263, 11.0482591], [76.7657382, 11.0456131], [76.7774165, 11.0424107], [76.7884683, 11.0452055], [76.7967921, 11.0561973], [76.8009782, 11.0542928], [76.7931675, 11.0433331], [76.7916857, 11.0372609], [76.7738424, 11.0335884], [76.766538, 11.0290375], [76.7492238, 11.0335159], [76.7377742, 11.0396779], [76.7325296, 11.0384653], [76.7260793, 11.041088], [76.71528, 11.041125], [76.7109898, 11.0390469], [76.7101402, 11.0340791], [76.6939321, 11.0212056], [76.6883468, 11.0088112], [76.6861647, 10.9895909], [76.6666293, 10.9676909], [76.6673095, 10.9600038], [76.6635162, 10.950952], [76.6658671, 10.9474895], [76.6647322, 10.9434283], [76.655931, 10.9389141], [76.6592596, 10.930481], [76.6753006, 10.918775], [76.6954067, 10.9103631], [76.7148897, 10.9086177], [76.7379999, 10.8957666], [76.7408374, 10.8910951], [76.7498475, 10.8922317], [76.7524548, 10.8950496], [76.7615158, 10.8933277], [76.7677675, 10.8870853], [76.7806507, 10.890607], [76.7909252, 10.8851361], [76.7915126, 10.8816097], [76.8081772, 10.8774133], [76.8115353, 10.8789515], [76.8166839, 10.8736123], [76.8279693, 10.8729775], [76.8307279, 10.8706833], [76.8316278, 10.860887], [76.8480348, 10.8501236], [76.8536527, 10.8388873], [76.8536197, 10.8344872], [76.8449128, 10.8260666], [76.8481046, 10.8192432], [76.8495959, 10.8176519], [76.8615656, 10.8187824], [76.8701583, 10.8084129], [76.8994045, 10.8084783], [76.9076683, 10.7795401], [76.9052486, 10.7720469], [76.9025267, 10.7706515], [76.9037542, 10.7615772], [76.8964152, 10.752369], [76.8961795, 10.7450777], [76.8883549, 10.7321728], [76.8929286, 10.7214144], [76.8904325, 10.7168418], [76.8864688, 10.7188829], [76.8828034, 10.7177508], [76.8680296, 10.6947507], [76.8709687, 10.693155], [76.866286, 10.6853867], [76.8684538, 10.6783173], [76.8782115, 10.6755912], [76.8782904, 10.6667014], [76.8840446, 10.6489056], [76.8825506, 10.6394399], [76.8620252, 10.6324762], [76.8302295, 10.6373897], [76.8215772, 10.6348479], [76.8144653, 10.6358341], [76.8148783, 10.629643], [76.8108701, 10.6233233], [76.8117819, 10.6198641], [76.8164491, 10.6169541], [76.818418, 10.6108352], [76.8155591, 10.6078851], [76.817726, 10.6027655], [76.8264578, 10.5966925], [76.8316841, 10.5994486], [76.8381643, 10.5972973], [76.8376284, 10.5811413], [76.8335723, 10.5746018], [76.8391943, 10.5613549], [76.8355679, 10.5577478], [76.8350315, 10.546884], [76.8421072, 10.540823], [76.8431071, 10.5372757], [76.8310115, 10.4989657], [76.8283888, 10.4501563], [76.8162346, 10.4232416], [76.8231175, 10.4171218], [76.8246583, 10.4099626], [76.8303478, 10.4113189], [76.8340509, 10.4032647], [76.8237018, 10.3951726], [76.8306829, 10.3895393], [76.8341672, 10.3833017], [76.8439886, 10.3774243], [76.8485945, 10.3688254], [76.8449878, 10.3630485], [76.8462929, 10.3579962], [76.8362279, 10.3461794], [76.837778, 10.336325], [76.8286947, 10.3079135], [76.830193, 10.3039451], [76.8403369, 10.3000041], [76.8449337, 10.295085], [76.8418649, 10.2906526], [76.8484877, 10.2874512], [76.8482492, 10.2850958], [76.851925, 10.2849223], [76.8510156, 10.2907062], [76.8537292, 10.2925991], [76.8581888, 10.2940959], [76.8622375, 10.2922142], [76.8641403, 10.2957211], [76.8732472, 10.2986419], [76.8734481, 10.2766416], [76.883955, 10.2709634], [76.891444, 10.2630766], [76.8971885, 10.2627523], [76.9014178, 10.2512582], [76.9045114, 10.2508202], [76.9056058, 10.2477796], [76.9031377, 10.240186], [76.9076496, 10.2409803], [76.9105718, 10.2358565], [76.9231812, 10.2326722], [76.9397607, 10.2392671], [76.9472829, 10.2371143], [76.9507543, 10.2324441], [76.9588372, 10.2342582], [76.9702381, 10.2302678], [76.9731306, 10.2258424], [76.9796405, 10.2242332], [76.9824635, 10.2204226], [76.9908555, 10.2259639], [76.9930152, 10.2303209], [76.998615, 10.2304879], [77.0012347, 10.2352678], [77.0033618, 10.2343017], [77.0062088, 10.2390571], [77.0112075, 10.2402878], [77.0142014, 10.2460029], [77.0453401, 10.2559894], [77.0509891, 10.2623848], [77.052281, 10.2734804], [77.0435226, 10.283785], [77.057052, 10.28695], [77.0648861, 10.2969745], [77.08022, 10.303691], [77.091512, 10.3142566], [77.0955695, 10.3087604], [77.101552, 10.3154758], [77.1204405, 10.3180065], [77.128356, 10.3258321], [77.1497214, 10.3362983], [77.1617246, 10.3484785], [77.1749748, 10.3575344], [77.1946982, 10.3548064], [77.2020092, 10.3579293], [77.2054008, 10.3539322], [77.2367574, 10.3522049], [77.2364401, 10.3383515], [77.2333717, 10.3373383], [77.2287885, 10.3278732], [77.2303676, 10.3248835], [77.2290801, 10.3142438], [77.2320843, 10.3086071], [77.2357485, 10.3073772], [77.242821, 10.2904775], [77.2631376, 10.2632784], [77.2572104, 10.259291], [77.2590105, 10.230337], [77.2694206, 10.2367994], [77.2768771, 10.2349728], [77.2810185, 10.2366199], [77.2882973, 10.2319049], [77.2953415, 10.2200327], [77.2873604, 10.2096359], [77.2832952, 10.2085823], [77.2858479, 10.2043509], [77.2848098, 10.2005282], [77.283154, 10.1965501], [77.2789505, 10.1950931], [77.2752611, 10.1841822], [77.2762985, 10.1756481], [77.2729025, 10.1649321], [77.2741207, 10.1572327], [77.2718351, 10.1425235], [77.2746314, 10.1397104], [77.2747312, 10.1321929], [77.2728551, 10.1285568], [77.2683711, 10.1271084], [77.2677609, 10.1216831], [77.2527051, 10.1243152], [77.2476019, 10.1303452], [77.237937, 10.129924], [77.2335085, 10.1277645], [77.2303922, 10.1204111], [77.2271028, 10.1212038], [77.2164792, 10.1158387], [77.2077671, 10.1176137], [77.2012647, 10.1058285], [77.2039402, 10.0975627], [77.2035938, 10.0882184], [77.2199921, 10.0770206], [77.2234314, 10.0690784], [77.2316679, 10.0661764], [77.2345011, 10.0597857], [77.2443224, 10.0521834], [77.2544992, 10.0367962], [77.261838, 10.0301501], [77.2618974, 10.0217764], [77.253124, 10.0127193], [77.2651468, 10.0020632], [77.2601216, 9.9957051], [77.2607906, 9.9910932], [77.2668767, 9.9896356], [77.2645295, 9.9871326], [77.2726172, 9.9763503], [77.2710243, 9.9707776], [77.2728925, 9.9646607], [77.2719247, 9.9614977], [77.2608714, 9.9525977], [77.2465387, 9.951347], [77.248106, 9.9470826], [77.2369694, 9.9361646], [77.2344379, 9.930845], [77.2355861, 9.926453], [77.2303193, 9.9211133], [77.2302464, 9.9125298], [77.2182614, 9.9042905], [77.2208605, 9.8844174], [77.2173793, 9.8842137], [77.2152116, 9.8773757], [77.212227, 9.8775749], [77.2196401, 9.8646007], [77.2261278, 9.8607919], [77.2364578, 9.8594618], [77.23705, 9.8513724], [77.2280635, 9.8490384], [77.2226434, 9.8448616], [77.2275579, 9.837908], [77.2264012, 9.8301209], [77.2219843, 9.8225317], [77.224926, 9.8202371], [77.2329313, 9.8215069], [77.2325609, 9.8173276], [77.2411626, 9.8157421], [77.2468972, 9.8081288], [77.2451263, 9.8028486], [77.2466845, 9.7979099], [77.2401084, 9.7968106], [77.2360781, 9.7900645], [77.2227339, 9.7878538], [77.2250312, 9.7755186], [77.2324151, 9.7684964], [77.2283967, 9.7657992], [77.2251346, 9.7524684], [77.2202602, 9.7442116], [77.22354, 9.7298524], [77.2208611, 9.7299071], [77.2187839, 9.7260514], [77.2043866, 9.7232917], [77.2060698, 9.7178067], [77.2020261, 9.7036142], [77.2067238, 9.6948851], [77.1935912, 9.6698674], [77.1869498, 9.6665269], [77.1874565, 9.6614577], [77.1828815, 9.6605141], [77.1796251, 9.6564146], [77.1792739, 9.64481], [77.1740912, 9.6372206], [77.1763307, 9.6293288], [77.1692812, 9.6240044], [77.165861, 9.6127905], [77.1695149, 9.6099475], [77.1741712, 9.6113371], [77.1882447, 9.606084], [77.1905773, 9.6091183], [77.1971218, 9.6108842], [77.1982835, 9.6144438], [77.2088424, 9.6135261], [77.2098336, 9.6049751], [77.2222677, 9.5977083], [77.2225741, 9.5926074], [77.2342193, 9.5815727], [77.2371131, 9.5808917], [77.2427052, 9.5851828], [77.2533155, 9.5828667], [77.2583296, 9.5765885], [77.2698843, 9.5728159], [77.2720553, 9.5764675], [77.2769149, 9.5756521], [77.2903552, 9.5848111], [77.290021, 9.5887028], [77.2940557, 9.5889584], [77.3038157, 9.5988089], [77.3178326, 9.6025571], [77.3248183, 9.5976595], [77.3281501, 9.6002574], [77.3299208, 9.5988153], [77.3247398, 9.5938467], [77.3253211, 9.580051], [77.3321335, 9.5789051], [77.3394765, 9.5733512], [77.354556, 9.6040987], [77.3611684, 9.6022286], [77.3657996, 9.5996931], [77.3661201, 9.5959743], [77.3622612, 9.5956508], [77.3610611, 9.5978898], [77.3575366, 9.5945437], [77.3549732, 9.5865835], [77.3585981, 9.5831309], [77.3599011, 9.5774541], [77.3581874, 9.5739182], [77.3533997, 9.5733583], [77.3502652, 9.5668887], [77.3529077, 9.5596083], [77.3617655, 9.557403], [77.3650971, 9.5526002], [77.3654343, 9.535214], [77.3687307, 9.534892], [77.3735879, 9.5266581], [77.3803876, 9.5252641], [77.3852256, 9.5191907], [77.3933976, 9.5218893], [77.4003882, 9.5274563], [77.403217, 9.5226512], [77.4004314, 9.51786], [77.4079581, 9.5149307], [77.4123612, 9.5090025], [77.398896, 9.4953823], [77.398618, 9.4817052], [77.401998, 9.4787019], [77.3982976, 9.47252], [77.3915457, 9.4687518], [77.3925338, 9.4594507], [77.3772473, 9.4528108], [77.3659051, 9.460054], [77.3493221, 9.4411021], [77.344511, 9.4243633], [77.3394596, 9.4203388], [77.3365717, 9.413442], [77.3435132, 9.4006129], [77.3397454, 9.3931957], [77.3414357, 9.389838], [77.3367302, 9.3874665], [77.3345417, 9.3810905], [77.3371331, 9.3650672], [77.3261793, 9.346749], [77.3252493, 9.3371002], [77.320286, 9.3376148], [77.3151938, 9.3348726], [77.3061376, 9.3377788], [77.3000738, 9.3366577], [77.3009835, 9.3299996], [77.2970101, 9.3286873], [77.3008827, 9.3258444], [77.302891, 9.3188972], [77.2995569, 9.3108505], [77.2888281, 9.301824], [77.2830277, 9.3012647], [77.2832911, 9.2912393], [77.2881839, 9.2807175], [77.2884371, 9.2746927], [77.2824309, 9.2725399], [77.2827721, 9.2572914], [77.2777896, 9.2471681], [77.2792917, 9.2416742], [77.2740989, 9.2354899], [77.2818494, 9.2169615], [77.2719976, 9.2071878], [77.2701567, 9.2003938], [77.2636557, 9.1982702], [77.2559977, 9.1991065], [77.2515135, 9.1883692], [77.265091, 9.1818381], [77.2670815, 9.173166], [77.2652387, 9.1631138], [77.2665122, 9.1520784], [77.2612455, 9.1495453], [77.2604953, 9.1443643], [77.2526361, 9.139238], [77.2469335, 9.1248308], [77.2418733, 9.12487], [77.2285072, 9.1168506], [77.2260185, 9.1077212], [77.2210485, 9.1058821], [77.2186606, 9.1014631], [77.2124795, 9.1004671], [77.2056805, 9.0849412], [77.208804, 9.0738633], [77.2056896, 9.0663983], [77.1969981, 9.057101], [77.1952199, 9.0499784], [77.1974496, 9.0469338], [77.1872598, 9.0430974], [77.1808252, 9.0476043], [77.1674921, 9.0453678], [77.1604809, 9.0358107], [77.1612083, 9.0295313], [77.1539881, 9.0225331], [77.1465424, 9.0217642], [77.1503424, 9.0164384], [77.1493804, 9.009603], [77.1568492, 9.0074618], [77.1561892, 9.0036841], [77.1616883, 8.9949736], [77.1734078, 8.9914473], [77.1776681, 8.9694096], [77.1850136, 8.9706074], [77.1906607, 8.9653091], [77.1910365, 8.9595217], [77.1967007, 8.9535562], [77.1938713, 8.9438327], [77.1971334, 8.9355772], [77.1923286, 8.9280269], [77.1932152, 8.9256998], [77.2020174, 8.9240414], [77.2098938, 8.9184306], [77.2181917, 8.9186168], [77.2214807, 8.9037034], [77.2263427, 8.9041774], [77.2388611, 8.8976607], [77.2401683, 8.8945552], [77.2374809, 8.8856573], [77.2458462, 8.8796842], [77.2563706, 8.8788093], [77.2586385, 8.8658904], [77.2553956, 8.8621527], [77.2615188, 8.8564304], [77.2617717, 8.8525911], [77.2591133, 8.8531683], [77.2582846, 8.8497892], [77.2628861, 8.8422216], [77.2471036, 8.8233538], [77.2469894, 8.8147428], [77.2423289, 8.8096858], [77.231944, 8.8076392], [77.2298001, 8.784528], [77.2246612, 8.7837395], [77.2199713, 8.7791811], [77.2130976, 8.7786503], [77.2190857, 8.7698227], [77.2178823, 8.768144], [77.2097262, 8.7653286], [77.2043211, 8.7693398], [77.1974706, 8.7690371], [77.200195, 8.7627499], [77.1983818, 8.7534647], [77.1921598, 8.7443269], [77.1826292, 8.742867], [77.1719618, 8.7502555], [77.1697017, 8.7475231], [77.1701051, 8.7418191], [77.1791089, 8.7304943], [77.1769497, 8.72512], [77.1812847, 8.7176557], [77.1949398, 8.7078372], [77.1955825, 8.7021705], [77.2067466, 8.6841862], [77.2076942, 8.680842], [77.200739, 8.6690623], [77.2083454, 8.6636868], [77.2077762, 8.6607683], [77.2121409, 8.6571144], [77.2140726, 8.6493792], [77.2248512, 8.6390591], [77.2288523, 8.6401661], [77.2345291, 8.6269081], [77.2440877, 8.6218708], [77.2453359, 8.6036178], [77.2555049, 8.5968658], [77.2587397, 8.5893029], [77.2637239, 8.5885921], [77.2664852, 8.584972], [77.2664944, 8.5807286], [77.2750437, 8.5654938], [77.2750326, 8.5580628], [77.2838186, 8.5465612], [77.2741464, 8.5368084], [77.2618378, 8.5062196], [77.2512202, 8.5054694], [77.246339, 8.5023718], [77.2443785, 8.497606], [77.2400202, 8.4969158], [77.2290345, 8.5092995], [77.2143049, 8.5128026], [77.2105652, 8.5067099], [77.2026364, 8.5014051], [77.2041405, 8.4965335], [77.2118847, 8.4921213], [77.2137404, 8.4853154], [77.2113747, 8.4774883], [77.2141869, 8.4695371], [77.2209133, 8.4659212], [77.2274007, 8.4584384], [77.2280261, 8.4472326], [77.2067135, 8.4448145], [77.2029, 8.4356585], [77.1971475, 8.4292206], [77.197585, 8.419564], [77.1832395, 8.4046786], [77.1824318, 8.3963131], [77.1685764, 8.384137], [77.1602439, 8.3900163], [77.1534005, 8.3879969], [77.1512317, 8.3850489], [77.1518705, 8.3813937], [77.1600036, 8.3812065], [77.161385, 8.3736683], [77.1607218, 8.36933], [77.1569395, 8.3673017], [77.1537421, 8.3613342], [77.1529404, 8.3550507], [77.1574063, 8.3598854], [77.1632433, 8.36167], [77.1665192, 8.3603189], [77.1678768, 8.3634456], [77.174358, 8.3586871], [77.1752643, 8.349681], [77.1669478, 8.3428747], [77.1698993, 8.3352151], [77.1801137, 8.3238642], [77.1758022, 8.320353], [77.172269, 8.3208698], [77.169187, 8.3326577], [77.1539207, 8.3278063], [77.1487649, 8.3320276], [77.1397005, 8.3297748], [77.1357552, 8.326482], [77.1292945, 8.3259022], [77.1294736, 8.3221657], [77.1191586, 8.3211465], [77.1189577, 8.3166785], [77.124476, 8.3120376], [77.1226514, 8.3088052], [77.1167294, 8.3103779], [77.1129016, 8.3046218], [77.1017945, 8.306448], [77.1016396, 8.3008624], [77.0962964, 8.2935318], [77.0330965, 8.3424918], [77.0094354, 8.3571008], [77.0067358, 8.3631447], [77.0034555, 8.3658156], [76.9990779, 8.3656038], [76.9937955, 8.3726478], [76.9890895, 8.3651254], [76.9902724, 8.3633209], [76.9973771, 8.3582452], [76.9988584, 8.3564689], [76.9900032, 8.363187], [76.988734, 8.3654612], [76.9890194, 8.3676074], [76.9948053, 8.3751723], [76.9910901, 8.3751422], [76.9924578, 8.377461], [76.988881, 8.37879], [76.9873287, 8.3766238], [76.9900899, 8.3735383], [76.9864335, 8.3755902], [76.9847739, 8.3799674], [76.9792458, 8.3822574], [76.9792485, 8.3849441], [76.9712797, 8.3919467], [76.9730955, 8.3966845], [76.970593, 8.4042813], [76.9574261, 8.4259298], [76.8849555, 8.5096204], [76.7936718, 8.6227961], [76.7842616, 8.6298886], [76.7842095, 8.6361661], [76.7769295, 8.6458244], [76.6996711, 8.7383372], [76.6821349, 8.7687332], [76.6489077, 8.8106409], [76.6331792, 8.8347814], [76.6028273, 8.8660175], [76.5917689, 8.8737923], [76.5816081, 8.8754319], [76.5833089, 8.8796841], [76.5715903, 8.8821619], [76.5674558, 8.879545], [76.5701419, 8.8773706], [76.5765341, 8.8746673], [76.5832915, 8.8710409], [76.5831747, 8.8706277], [76.5699246, 8.8771825], [76.5656187, 8.8799711], [76.5466726, 8.9032504], [76.542601, 8.9122387], [76.5395486, 8.9320642], [76.5354636, 8.9333413], [76.5407637, 8.9320827], [76.5410614, 8.9377], [76.5355515, 8.9357145], [76.537285, 8.9374166], [76.5248179, 8.982304], [76.5184635, 9.0188596], [76.5107685, 9.0310454], [76.465922, 9.1287999], [76.4623198, 9.1344591], [76.4580122, 9.1357621], [76.4617002, 9.1388763], [76.4573765, 9.1498289], [76.3963079, 9.2827376], [76.3826096, 9.311072], [76.3784292, 9.3174879], [76.3774371, 9.3176097], [76.3761261, 9.3197897], [76.3778431, 9.3176999], [76.3796756, 9.3183761], [76.3522661, 9.378795], [76.3304071, 9.4381515], [76.3151043, 9.5011811], [76.2937805, 9.6232295], [76.2956825, 9.6245699], [76.2956131, 9.630659], [76.2901669, 9.669373], [76.2837706, 9.7500159], [76.2756789, 9.7958364], [76.2733294, 9.7985954], [76.2723499, 9.8011507], [76.2736591, 9.7984884], [76.2756297, 9.7996379], [76.2734487, 9.8012505], [76.2748359, 9.8022942], [76.2608878, 9.8818732], [76.250978, 9.9190585], [76.237261, 9.9578979], [76.2379781, 9.9656636], [76.2443573, 9.9689548], [76.2439113, 9.97262], [76.2319905, 9.9752805], [76.2245674, 9.9738528], [76.2129253, 10.0222458], [76.2004369, 10.0581969], [76.1783785, 10.1413957], [76.1662777, 10.1753086], [76.1618903, 10.1774528], [76.1232912, 10.3114518], [76.0811216, 10.4222445], [76.0649586, 10.4597513], [76.033853, 10.5145513], [75.9993571, 10.5882066], [75.9186548, 10.7740892], [75.9137753, 10.783301], [75.9101039, 10.7847368], [75.9120405, 10.7860542], [75.911035, 10.7883808], [75.9085412, 10.7866048], [75.9092719, 10.7933811], [75.8780495, 10.9368932], [75.836767, 11.0958719], [75.8261483, 11.1252917], [75.8149794, 11.1477032], [75.800305, 11.1581422], [75.7961901, 11.155972], [75.8035941, 11.1606436], [75.8023928, 11.1626259], [75.7960833, 11.1588007], [75.8019574, 11.1626534], [75.8002728, 11.170442], [75.7784773, 11.2258523], [75.7798528, 11.2275829], [75.7779856, 11.2272173], [75.768272, 11.258522], [75.765995, 11.2625646], [75.7639747, 11.2621809], [75.7629839, 11.2625273], [75.7583928, 11.2659234], [75.7638866, 11.2623827], [75.7664382, 11.2639034], [75.7649374, 11.2676844], [75.7611964, 11.2653645], [75.7643025, 11.2675256], [75.7643148, 11.2705042], [75.7461324, 11.3200244], [75.7372624, 11.3247137], [75.7338506, 11.3349389], [75.736753, 11.340117], [75.7350481, 11.350614], [75.7154828, 11.3923752], [75.7129294, 11.3935059], [75.7024017, 11.4160149], [75.6821479, 11.4491626], [75.6770387, 11.449591], [75.6643492, 11.4620658], [75.6524938, 11.4668763], [75.644989, 11.4672076], [75.6341743, 11.4617556], [75.6267929, 11.4732219], [75.6171745, 11.477312], [75.6183439, 11.482343], [75.6128293, 11.5010523], [75.5709922, 11.6169492], [75.5359304, 11.6923862], [75.5421832, 11.697604], [75.5446822, 11.70447], [75.5383702, 11.7092796], [75.534574, 11.7088179], [75.5308867, 11.7035707], [75.5241019, 11.7074149], [75.519864, 11.7149736], [75.516648, 11.7158797], [75.5096045, 11.7294916], [75.5035856, 11.7344052], [75.49905, 11.7320653], [75.4917195, 11.7435047], [75.485242, 11.7463172], [75.4833752, 11.7531527], [75.4730407, 11.7637939], [75.4695947, 11.766385], [75.4605496, 11.7658673], [75.4535568, 11.7712876], [75.4539165, 11.7789858], [75.4470543, 11.7821115], [75.4462695, 11.7893441], [75.4361468, 11.80421], [75.4239039, 11.8122636], [75.4105988, 11.8307051], [75.3858018, 11.8552394], [75.3778651, 11.8585837], [75.375967, 11.854768], [75.3749321, 11.8581886], [75.372313, 11.8561031], [75.3741465, 11.852396], [75.3700154, 11.8535711], [75.3666683, 11.8510092], [75.3595781, 11.8592382], [75.3551039, 11.8598834], [75.355068, 11.863881], [75.3486371, 11.8752254], [75.328202, 11.900051], [75.324048, 11.903991], [75.3187519, 11.905081], [75.3194971, 11.9111468], [75.314225, 11.920318], [75.296482, 11.9419022], [75.2686697, 11.9837473], [75.2450609, 12.0120797], [75.2293405, 12.0213285], [75.22385, 12.0194778], [75.2204651, 12.0127251], [75.216617, 12.010273], [75.2098301, 12.0107916], [75.2039212, 12.0051878], [75.2012591, 12.0059342], [75.1723677, 12.0699527], [75.095281, 12.2643341], [75.054343, 12.358746], [75.039609, 12.3885], [75.0365251, 12.3915123], [75.0311615, 12.3911452], [75.0204366, 12.4136621], [75.0150427, 12.4171251], [74.9891996, 12.4715152], [74.984449, 12.4731298], [74.9877802, 12.4742397], [74.9820954, 12.475582], [74.9806288, 12.4728639], [74.9829333, 12.4778744], [74.9506402, 12.5599672], [74.8999867, 12.6796064], [74.8813266, 12.7155534], [74.8640682, 12.7600633]]]}}]}